Status,Borough,GISPropNum,OMPPropID,SubPropertyName,PropertyName,Feature,System,FeatureType,District,x,y
Activated,B,B001,B001,American Playground,American Playground,Play Equipment,B001-SPRAY01,Sprinkler,B-01,995942.28193132,204739.17641795
Under Construction,B,B007,B007-01,Bensonhurst Park Playground,Bensonhurst Park,Play Equipment,B007-01-SPRAY02,Sprinkler,B-11,984301.850934222,156751.750522807
Activated,B,B012,B012,Brower Park,Brower Park,Play Equipment,B012-SPRAY03,Sprinkler,B-08,999976.546552641,184806.013628985
Activated,B,B016,B016-01,Maria Hernandez Park Playground,Maria Hernandez Park,Play Equipment,B016-01-SPRAY06,Sprinkler,B-04,1005252.1223538,195326.741614148
Activated,B,B019,B019,Carroll Park,Carroll Park,Play Equipment,B019-SPRAY08,Sprinkler,B-06,985505.164472475,187419.019568726
Activated,B,B021,B021,Commodore Barry Park,Commodore Barry Park,Play Equipment,B021-SPRAY09,Sprinkler,B-02,990090.59788689,193320.583881065
Activated,B,B022,B022,Middleton Playground,Middleton Playground,Play Equipment,B022-SPRAY010,Sprinkler,B-01,996610.81286481,194556.789085805
Activated,B,B023,B023,Lafayette Playground,Lafayette Playground,Play Equipment,B023-SPRAY011,Sprinkler,B-03,1003643.47891755,191601.130955144
Activated,B,B025,B025,Cooper Park,Cooper Park,Play Equipment,B025-SPRAY012,Sprinkler,B-01,1001648.00456205,200087.143510639
Activated,B,B025,B025-01,Carnegie Plgd,Cooper Park,Play Equipment,B025-01-SPRAY013,Sprinkler,B-01,1001589.01583488,200121.243179976
Activated,B,B026,B026,Cuyler Gore Park,Cuyler Gore Park,Play Equipment,B026-SPRAY014,Sprinkler,B-02,992034.283632054,189081.253448978
Activated,B,B028,B028-01,Bay 8 Playground,Dyker Beach Park,Play Equipment,B028-01-SPRAY015,Sprinkler,B-10,979730.727202475,160325.843440219
Activated,B,B028,B028-03,Dyker Plgd,Dyker Beach Park,Play Equipment,B028-03-SPRAY016,Sprinkler,B-10,980709.637318134,162511.406654387
Activated,B,B032,B032-01,Fort Greene Plgd,Fort Greene Park,Play Equipment,B032-01-SPRAY017,Sprinkler,B-02,990591.16447106,191549.66091372
Activated,B,B032,B032-02,Fort Greene Park,Fort Greene Park,Play Equipment,B032-02-SPRAY018,Sprinkler,B-02,991553.228491798,190751.136264055
Activated,B,B043,B043,Greenpoint Playground,Greenpoint Playground,Play Equipment,B043-SPRAY019,Sprinkler,B-01,995612.412000457,207304.984009886
Activated,B,B050,B050,Van Voorhees Playground,Van Voorhees Playground,Play Equipment,B050-SPRAY020,Sprinkler,B-06,984438.127892643,190775.512855723
Activated,B,B051,B051,Kelly Park Playground,Kelly Park Playground,Play Equipment,B051-SPRAY021,Sprinkler,B-15,996011.938734471,159397.781648054
Activated,B,B052,B052-03,Leif Ericson Park Playground,Leif Ericson Park,Play Equipment,B052-03-SPRAY022,Sprinkler,B-10,980945.759549304,169100.705483645
Activated,B,B054,B054-01,Lincoln Terrace Park / Arthur S. Somers Playground,Lincoln Terrace / Arthur S. Somers Park,Play Equipment,B054-01-SPRAY023,Sprinkler,B-08,1004239.53940522,182073.698566481
Activated,B,B056,B056,Martin Luther King Jr. Playground,Martin Luther King Jr. Playground,Play Equipment,B056-SPRAY024,Sprinkler,B-05,1014647.0169498,182551.734683886
Activated,B,B057,B057-03,PS 278 Plgd,Marine Park,Play Equipment,B057-03-SPRAY025,Sprinkler,B-18,1001420.43382297,160424.277626559
Activated,B,B057,B057-04,Lenape Playground,Marine Park,Play Equipment,B057-04-SPRAY026,Sprinkler,B-18,1004655.45031879,160178.345375642
Activated,B,B057,B057-05,Dr John's Plgd,Marine Park,Play Equipment,B057-05-SPRAY027,Sprinkler,B-18,1004257.0042653,156720.354916304
Activated,B,B058,B058-01,Vincent V Abate Plgd,McCarren Park,Play Equipment,B058-01-SPRAY028,Sprinkler,B-01,998193.186012387,202014.400482893
Activated,B,B060,B060-01,McKinley Park Playground,McKinley Park,Play Equipment,B060-01-SPRAY029,Sprinkler,B-10,979569.663548216,167487.207726389
Activated,B,B061,B061,McLaughlin Park,McLaughlin Park,Play Equipment,B061-SPRAY030,Sprinkler,B-02,988119.062131807,193035.894489809
Activated,B,B066,B066-01,Owls Head Park,Owl's Head Park,Play Equipment,B066-01-SPRAY031,Sprinkler,B-10,975886.349064469,172573.666057392
Activated,B,B066,B066-02,Owls Head Park,Owl's Head Park,Play Equipment,B066-02-SPRAY032,Sprinkler,B-10,975693.028584972,172231.947252646
Activated,B,B068,B068-01,Detective Dillon Stewart Plgd,Parade Ground,Play Equipment,B068-01-SPRAY033,Sprinkler,B-14,993863.798345714,176569.296517565
Activated,B,B073,B073-02,Third St Plgd,Prospect Park,Play Equipment,B073-02-SPRAY034,Sprinkler,B-19,991774.53808856,182342.472963303
Activated,B,B073,B073-07,Vanderbilt Playground,Prospect Park,Play Equipment,B073-07-SPRAY035,Sprinkler,B-19,991752.309458464,177941.463392645
Activated,B,B073,B073-09,Imagination Plgd,Prospect Park,Play Equipment,B073-09-SPRAY036,Sprinkler,B-19,994508.119891718,179231.65339756
Activated,B,B073,B073-10,Lincoln Rd Plgd,Prospect Park,Play Equipment,B073-10-SPRAY037,Sprinkler,B-19,994386.35241872,180053.359103232
Activated,B,B073,B073-20,Harmony Playground,Prospect Park,Play Equipment,B073-20-SPRAY038,Sprinkler,B-19,990641.095145464,180995.527822554
Activated,B,B077,B077-01,Coffey Park Playground,Coffey Park,Play Equipment,B077-01-SPRAY039,Sprinkler,B-06,981747.494822472,185967.867615386
Activated,B,B078,B078,Grace Playground,Grace Playground,Play Equipment,B078-SPRAY040,Sprinkler,B-05,1013532.51655413,183893.967891812
Activated,B,B079,B079,Saratoga Park,Saratoga Park,Play Equipment,B079-SPRAY041,Sprinkler,B-03,1006714.92421822,188843.765078812
Broken,B,B082,B082-01B,Vinland Plgd,Shore Park and Parkway,Play Equipment,B082-01B-SPRAY042,Sprinkler,B-10,973139.627195716,164233.054129719
Broken,B,B082,B082-02,79 St Plgd,Shore Park and Parkway,Play Equipment,B082-02-SPRAY043,Sprinkler,B-10,973294.972357466,169360.757128894
Activated,B,B087,B087-01,Sunset Park Playground,Sunset Park,Play Equipment,B087-01-SPRAY044,Sprinkler,B-07,983001.42243272,175247.467468306
Activated,B,B088,B088,Herbert Von King Park,Herbert Von King Park,Play Equipment,B088-SPRAY045,Sprinkler,B-03,999261.934552382,190515.294856084
Activated,B,B088,B088,Herbert Von King Park,Herbert Von King Park,Play Equipment,B088-SPRAY046,Sprinkler,B-03,999053.639672055,190547.028732642
Activated,B,B088,B088-03,Herbert Von King Park,Herbert Von King Park,Play Equipment,B088-03-SPRAY047,Sprinkler,B-03,999114.850583109,190682.849816759
Activated,B,B097,B097,Sledge Playground,Sledge Playground,Play Equipment,B097-SPRAY048,Sprinkler,B-18,1012610.99477513,171795.31557998
Activated,B,B098,B098,Martin Luther Playground,Martin Luther Playground,Play Equipment,B098-SPRAY049,Sprinkler,B-07,978770.281288728,174553.898317396
Activated,B,B099,B099,Lt. Joseph Petrosino Park,Lt. Joseph Petrosino Park,Play Equipment,B099-SPRAY050,Sprinkler,B-11,984663.015566214,164838.412499055
Activated,B,B102,B102,Crispus Attucks Playground,Crispus Attucks Playground,Play Equipment,B102-SPRAY051,Sprinkler,B-02,995573.485871225,187592.723945722
Activated,B,B103,B103,Cypress Hills Playground,Cypress Hills Playground,Play Equipment,B103-SPRAY052,Sprinkler,B-05,1019846.10661722,183563.190338149
Activated,B,B105,B105,Taaffe Playground,Taaffe Playground,Play Equipment,B105-SPRAY053,Sprinkler,B-03,995144.640928387,192588.320581808
Activated,B,B106A,B106A,Scarangella Park,Scarangella Park,Play Equipment,B106A-SPRAY054,Sprinkler,B-13,988599.396144882,155929.635041058
Activated,B,B107,B107,Lion's Pride Playground,Lion's Pride Playground,Play Equipment,B107-SPRAY055,Sprinkler,B-05,1012057.38466188,180730.911553889
Activated,B,B109,B109,Bill Brown Playground,Bill Brown Playground,Play Equipment,B109-SPRAY056,Sprinkler,B-15,999341.498020216,155023.088625803
Activated,B,B111,B111,J.J. Byrne Playground,J.J. Byrne Playground,Play Equipment,B111-SPRAY057,Sprinkler,B-06,988491.128972977,184490.27214539
Activated,B,B114,B114-01,Monsignor Mcgolrick Playground,Msgr. McGolrick Park,Play Equipment,B114-01-SPRAY058,Sprinkler,B-01,999912.622206047,203489.960851982
Activated,B,B121,B121,Dodger Playground,Dodger Playground,Play Equipment,B121-SPRAY059,Sprinkler,B-09,997466.514893561,181511.400806561
Activated,B,B124,B124,William Sheridan Playground,William Sheridan Playground,Play Equipment,B124-SPRAY060,Sprinkler,B-01,994182.80656597,199855.47993198
Activated,B,B125,B125-01,Calvert Vaux Park Playground,Calvert Vaux Park,Play Equipment,B125-01-SPRAY061,Sprinkler,B-13,986869.730969056,153432.459261149
Activated,B,B128,B128,Colonel David Marcus Playground,Colonel David Marcus Playground,Play Equipment,B128-SPRAY063,Sprinkler,B-12,992763.856976047,161473.630186647
Activated,B,B129,B129-01,Leon S Kaiser Playground,Kaiser Park,Play Equipment,B129-01-SPRAY064,Sprinkler,B-13,985540.924571558,149929.026635482
Activated,B,B130,B130,Greenwood Playground,Greenwood Playground,Play Equipment,B130-SPRAY065,Sprinkler,B-07,990799.801520973,176227.960914149
Activated,B,B131,B131,Rudd Playground,Rudd Playground,Play Equipment,B131-SPRAY066,Sprinkler,B-04,1010492.88254155,188258.496892392
Activated,B,B137,B137,Sixteen Sycamores Playground,Sixteen Sycamores Playground,Play Equipment,B137-SPRAY067,Sprinkler,B-02,989517.803428798,189493.747374638
Activated,B,B139,B139,Heckscher Playground,Heckscher Playground,Play Equipment,B139-SPRAY068,Sprinkler,B-04,1006914.30866196,192536.128100886
Activated,B,B144,B144,Ocean Hill Playground,Ocean Hill Playground,Play Equipment,B144-SPRAY069,Sprinkler,B-16,1008608.54346247,185000.898092642
Activated,B,B149A,B149A,Elton Playground,Elton Playground,Play Equipment,B149A-SPRAY071,Sprinkler,B-05,1017335.70973514,181916.104721561
Activated,B,B149B,B149B,Linwood Playground,Linwood Playground,Play Equipment,B149B-SPRAY072,Sprinkler,B-05,1017437.67147347,181979.844095394
Activated,B,B150,B150,Kolbert Playground,Kolbert Playground,Play Equipment,B150-SPRAY073,Sprinkler,B-14,995907.646292135,165189.43312247
Activated,B,B151,B151,Dome Playground,Dome Playground,Play Equipment,B151-SPRAY074,Sprinkler,B-12,989746.856448382,171792.905807897
Activated,B,B152,B152,Rappaport Playground,Rappaport Playground,Play Equipment,B152-SPRAY075,Sprinkler,B-12,984058.478389471,171343.471995472
Activated,B,B153,B153,South Pacific Playground,South Pacific Playground,Play Equipment,B153-SPRAY076,Sprinkler,B-16,1006358.25432789,185445.000222817
Activated,B,B154,B154,Berry Playground,Berry Playground,Play Equipment,B154-SPRAY077,Sprinkler,B-01,994365.245505556,198913.906683892
Activated,B,B156,B156,Powell Playground,Powell Playground,Play Equipment,B156-SPRAY078,Sprinkler,B-16,1010650.87960088,183853.577552646
Activated,B,B157,B157,Kelly Park Playground,Kelly Park Playground,Play Equipment,B157-SPRAY079,Sprinkler,B-15,996334.311449304,159472.728348553
Activated,B,B158,B158,Garibaldi Playground,Garibaldi Playground,Play Equipment,B158-SPRAY080,Sprinkler,B-11,984223.441642224,161137.88315472
Activated,B,B159,B159-01,Mt Prospect Park Playground,Mount Prospect Park,Play Equipment,B159-01-SPRAY081,Sprinkler,B-08,993673.298726722,184126.87949948
Activated,B,B161,B161,Underhill Playground,Underhill Playground,Play Equipment,B161-SPRAY082,Sprinkler,B-08,993758.521325305,185805.839724227
Activated,B,B162,B162,Brizzi Playground,Brizzi Playground,Play Equipment,B162-SPRAY083,Sprinkler,B-12,985735.086912885,173326.451953396
Activated,B,B163,B163,Sperandeo Brothers Playground,Sperandeo Brothers Playground,Play Equipment,B163-SPRAY084,Sprinkler,B-05,1016298.99527314,185982.881692975
Activated,B,B164,B164,Bath Beach Park,Bath Beach Park,Play Equipment,B164-SPRAY085,Sprinkler,B-11,981167.435287058,158764.104109644
Activated,B,B166B,B166B,Homecrest Playground,Homecrest Playground,Play Equipment,B166B-SPRAY086,Sprinkler,B-15,996112.448047891,152811.420476973
Activated,B,B167,B167,La Guardia Playground,La Guardia Playground,Play Equipment,B167-SPRAY087,Sprinkler,B-01,995409.294926643,198116.845285892
Activated,B,B169A,B169A,Brighton Playground,Brighton Playground,Play Equipment,B169A-SPRAY088,Sprinkler,B-13,993862.919082388,148831.87922348
Activated,B,B169B,B169B,Poseidon Playground,Poseidon Playground,Play Equipment,B169B-SPRAY089,Sprinkler,B-13,986449.412912055,147835.531478643
Activated,B,B169,B169-ZN05B,Coney Island Beach Zone 5b,Coney Island Beach & Boardwalk,Play Equipment,B169-ZN05B-SPRAY090,Sprinkler,B-13,988846.706345811,147811.627983137
Activated,B,B192,B192,Russell Pedersen Playground,Russell Pedersen Playground,Play Equipment,B192-SPRAY091,Sprinkler,B-10,974206.681163966,167486.122098639
Under Construction,B,B193,B193,Hamilton Metz Field,Hamilton Metz Field,Play Equipment,B193-SPRAY092,Sprinkler,B-09,1000628.40817604,180672.718428805
Activated,B,B197,B197,Mellett Playground,Mellett Playground,Play Equipment,B197-SPRAY093,Sprinkler,B-15,996067.30115655,156777.594303146
Activated,B,B200,B200,Elizabeth Stroud Playground,Elizabeth Stroud Playground,Play Equipment,B200-SPRAY094,Sprinkler,B-03,1003363.28525221,186903.206295892
Activated,B,B207,B207,Sarsfield Playground,Sarsfield Playground,Play Equipment,B207-SPRAY095,Sprinkler,B-18,1001606.47642989,165237.060979977
Activated,B,B208,B208,Pfc Norton Playground,Pfc Norton Playground,Play Equipment,B208-SPRAY096,Sprinkler,B-15,999547.283697888,163189.700901478
Activated,B,B209,B209,Galapo Playground,Galapo Playground,Play Equipment,B209-SPRAY097,Sprinkler,B-15,999043.460558548,157146.769417807
Activated,B,B210A,B210A,John Allen Payne Playground,John Allen Payne Playground,Play Equipment,B210A-SPRAY098,Sprinkler,B-07,977622.30851905,172436.409442141
Activated,B,B210B,B210B,D'Emic Playground,D'Emic Playground,Play Equipment,B210B-SPRAY099,Sprinkler,B-07,982879.472873464,178278.133979141
Activated,B,B210I,B210I,Gonzalo Plasencia Playground,Gonzalo Plasencia Playground,Play Equipment,B210I-SPRAY0101,Sprinkler,B-07,981912.697904139,177030.900581225
Activated,B,B210J,B210J,Pena Herrera Playground,Pena Herrera Playground,Play Equipment,B210J-SPRAY0102,Sprinkler,B-07,980901.831159472,175840.108999565
Activated,B,B212,B212,Hot Spot Tot Lot,Hot Spot Tot Lot,Play Equipment,B212-SPRAY0103,Sprinkler,B-14,996264.326681137,169185.064894974
Activated,B,B214,B214-01,Linden Park,Linden Park,Play Equipment,B214-01-SPRAY0104,Sprinkler,B-05,1015699.01254922,179290.274999469
Activated,B,B216,B216,Raymond Bush Playground,Raymond Bush Playground,Play Equipment,B216-SPRAY0105,Sprinkler,B-03,1001014.40313896,189343.022938564
Activated,B,B217,B217,Marcy Playground,Marcy Playground,Play Equipment,B217-SPRAY0106,Sprinkler,B-03,997861.660756811,192677.46377623
Activated,B,B218,B218,Paerdegat Park,Paerdegat Park,Play Equipment,B218-SPRAY0107,Sprinkler,B-17,1001420.24320656,171745.420994728
Activated,B,B219,B219,Callahan-Kelly Playground,Callahan-Kelly Playground,Play Equipment,B219-SPRAY0108,Sprinkler,B-16,1010513.08263239,186435.358478307
Activated,B,B220,B220,Washington Hall Park,Washington Hall Park,Play Equipment,B220-SPRAY0109,Sprinkler,B-02,993460.516015798,192610.410432636
Activated,B,B223B,B223B,Dimattina Playground,Dimattina Playground,Play Equipment,B223B-SPRAY0110,Sprinkler,B-06,983670.822012558,187292.75472939
Activated,B,B223H,B223H,Harry Chapin Playground,Harry Chapin Playground,Play Equipment,B223H-SPRAY0111,Sprinkler,B-02,985657.399732306,194547.430836811
Activated,B,B223R,B223R,Jaime Campiz Playground,Jaime Campiz Playground,Play Equipment,B223R-SPRAY0112,Sprinkler,B-01,996897.710913047,199242.586144641
Activated,B,B224,B224,P.O. Reinaldo Salgado Playground,P.O. Reinaldo Salgado Playground,Play Equipment,B224-SPRAY0113,Sprinkler,B-03,1004817.67998121,189913.176653891
Activated,B,B225,B225,St. Andrew's Playground,St. Andrew's Playground,Play Equipment,B225-SPRAY0114,Sprinkler,B-03,1000272.43907171,186544.962261721
Activated,B,B228,B228,Dr. Green Playground,Dr. Green Playground,Play Equipment,B228-SPRAY0116,Sprinkler,B-16,1010033.15773922,182368.708475142
Activated,B,B230,B230,Nicholas Naquan Heyward Jr. Park,Nicholas Naquan Heyward Jr. Park,Play Equipment,B230-SPRAY0117,Sprinkler,B-06,987615.088074132,188689.089863225
Activated,B,B232,B232,Dean Playground,Dean Playground,Play Equipment,B232-SPRAY0118,Sprinkler,B-08,991686.780061975,187340.278256386
Activated,B,B234,B234,Tilden Playground,Tilden Playground,Play Equipment,B234-SPRAY0119,Sprinkler,B-17,1003279.3762993,175230.045259058
Activated,B,B235,B235,Herman Dolgon Playground,Herman Dolgon Playground,Play Equipment,B235-SPRAY0120,Sprinkler,B-15,1000911.57066747,157183.173544481
Activated,B,B237,B237,John Hancock Playground,John Hancock Playground,Play Equipment,B237-SPRAY0121,Sprinkler,B-03,996859.187696144,187873.542281731
Activated,B,B239,B239,Sheepshead Playground,Sheepshead Playground,Play Equipment,B239-SPRAY0122,Sprinkler,B-15,1000864.89326739,153801.707866475
Activated,B,B243,B243,Golconda Playground,Golconda Playground,Play Equipment,B243-SPRAY0123,Sprinkler,B-02,989162.1131953,193513.906985223
Activated,B,B244,B244,McDonald Playground,McDonald Playground,Play Equipment,B244-SPRAY0124,Sprinkler,B-15,991997.381474882,158077.925035804
Activated,B,B245,B245-02,St. John's Playground,St. John's Park,Play Equipment,B245-02-SPRAY0125,Sprinkler,B-08,1002073.42857997,184832.933861643
Activated,B,B246,B246,Jerome Playground,Jerome Playground,Play Equipment,B246-SPRAY0126,Sprinkler,B-05,1017657.72516721,179363.744340732
Activated,B,B247,B247,Breukelen Ballfields,Breukelen Ballfields,Play Equipment,B247-SPRAY0127,Sprinkler,B-18,1014077.17819447,177024.234912142
Activated,B,B248,B248,Fox Playground,Fox Playground,Play Equipment,B248-SPRAY0129,Sprinkler,B-18,1005366.47481538,169659.929430812
Activated,B,B249,B249,Van Dyke Playground,Van Dyke Playground,Play Equipment,B249-SPRAY0130,Sprinkler,B-16,1010880.30663546,181361.187852397
Activated,B,B250,B250,Nostrand Playground,Nostrand Playground,Play Equipment,B250-SPRAY0131,Sprinkler,B-17,998943.403672054,171763.261510223
Activated,B,B251,B251-04,Pat Parlato Plgd,Manhattan Beach Park,Play Equipment,B251-04-SPRAY0132,Sprinkler,B-15,999149.920163987,149570.47001473
Activated,B,B251,B251-08,Manhattan Beach Park Playground,Manhattan Beach Park,Play Equipment,B251-08-SPRAY0133,Sprinkler,B-15,1000736.00704221,149693.025795146
Activated,B,B252,B252,West Playground,West Playground,Play Equipment,B252-SPRAY0134,Sprinkler,B-13,992562.836708799,153168.345616146
Activated,B,B253,B253,Albert J. Parham Playground,Albert J. Parham Playground,Play Equipment,B253-SPRAY0135,Sprinkler,B-02,992355.184565052,190799.236889645
Broken,B,B254,B254,Wingate Park,Wingate Park,Play Equipment,B254-SPRAY0136,Sprinkler,B-09,999732.089758724,179215.95296964
Activated,B,B259,B259,Underwood Park,Underwood Park,Play Equipment,B259-SPRAY0137,Sprinkler,B-02,993562.788449049,190145.531832233
Activated,B,B260,B260,Howard Playground,Howard Playground,Play Equipment,B260-SPRAY0138,Sprinkler,B-16,1009746.23081964,184017.542119726
Activated,B,B261,B261,Sankofa Park,Sankofa Park,Play Equipment,B261-SPRAY0139,Sprinkler,B-05,1015829.12219713,181784.769682392
Activated,B,B262,B262,Potomac Playground,Potomac Playground,Play Equipment,B262-SPRAY0140,Sprinkler,B-03,999697.699735641,187776.995886892
Activated,B,B263,B263,Sumner Playground,Sumner Playground,Play Equipment,B263-SPRAY0141,Sprinkler,B-03,1000122.42165522,193317.992678895
Broken,B,B265,B265,Rainbow Playground,Rainbow Playground,Play Equipment,B265-SPRAY0142,Sprinkler,B-07,981179.177389547,172644.25548315
Activated,B,B266,B266,Star Spangled Playground,Star Spangled Playground,Play Equipment,B266-SPRAY0143,Sprinkler,B-03,995910.193203046,191355.622587889
Activated,B,B267,B267,Winthrop Playground,Winthrop Playground,Play Equipment,B267-SPRAY0144,Sprinkler,B-09,996910.766333133,178485.701805472
Activated,B,B268,B268,Nautilus Playground,Nautilus Playground,Play Equipment,B268-SPRAY0145,Sprinkler,B-13,985286.786300301,147571.270196139
Activated,B,B269,B269,Jesse Owens Playground,Jesse Owens Playground,Play Equipment,B269-SPRAY0146,Sprinkler,B-03,1002998.44116564,191169.307343721
Activated,B,B271,B271,Railroad Playground,Railroad Playground,Play Equipment,B271-SPRAY0147,Sprinkler,B-17,1008036.54755921,175895.667615473
Broken,B,B272,B272,Marlboro Playground,Marlboro Playground,Play Equipment,B272-SPRAY0148,Sprinkler,B-13,989570.405685797,154674.116226643
Activated,B,B274,B274,Bayview Playground,Bayview Playground,Play Equipment,B274-SPRAY0149,Sprinkler,B-18,1015638.33616139,170612.349113896
Activated,B,B275,B275,Grady Playground,Grady Playground,Play Equipment,B275-SPRAY0150,Sprinkler,B-13,994051.748101055,151700.371517971
Activated,B,B277,B277,Benson Playground,Benson Playground,Play Equipment,B277-SPRAY0151,Sprinkler,B-11,983622.123619139,158759.18121922
Activated,B,B284,B284,Marc And Jason's Playground,Marc And Jason's Playground,Play Equipment,B284-SPRAY0152,Sprinkler,B-09,998253.261679634,181018.601267233
Activated,B,B285,B285,Harry Maze Playground,Harry Maze Playground,Play Equipment,B285-SPRAY0153,Sprinkler,B-17,1005569.9327418,173700.1953004
Activated,B,B286,B286,Bartlett Playground,Bartlett Playground,Play Equipment,B286-SPRAY0154,Sprinkler,B-01,999196.413664713,194637.985773816
Activated,B,B288,B288,Slope Park Playground,Slope Park Playground,Play Equipment,B288-SPRAY0155,Sprinkler,B-07,987178.634878799,180180.383783563
Activated,B,B291,B291,Power Playground,Power Playground,Play Equipment,B291-SPRAY0156,Sprinkler,B-18,1004426.95733746,164486.161235064
Activated,B,B292,B292,Pratt Playground,Pratt Playground,Play Equipment,B292-SPRAY0157,Sprinkler,B-02,994642.014308974,191624.826117724
Activated,B,B293,B293,Classon Playground,Classon Playground,Play Equipment,B293-SPRAY0158,Sprinkler,B-02,995187.069321215,190456.545973971
Activated,B,B294,B294,Jackie Robinson Park Playground,Jackie Robinson Park Playground,Play Equipment,B294-SPRAY0159,Sprinkler,B-03,1004272.36611121,187104.248544722
Activated,B,B295,B295,Oxport Playground,Oxport Playground,Play Equipment,B295-SPRAY0160,Sprinkler,B-02,990837.359516725,193433.475059479
Broken,B,B296,B296,Luna Playground,Luna Playground,Play Equipment,B296-SPRAY0161,Sprinkler,B-13,990250.055245131,149164.08295539
Activated,B,B297,B297,Albemarle Playground,Albemarle Playground,Play Equipment,B297-SPRAY0162,Sprinkler,B-12,989641.338286727,174603.550777137
Activated,B,B298,B298,Stockton Playground,Stockton Playground,Play Equipment,B298-SPRAY0163,Sprinkler,B-03,998482.359318554,193319.893593728
Activated,B,B300,B300,Oracle Playground,Oracle Playground,Play Equipment,B300-SPRAY0164,Sprinkler,B-02,992148.106567144,192095.614218145
Activated,B,B301,B301,Greene Playground,Greene Playground,Play Equipment,B301-SPRAY0165,Sprinkler,B-02,993706.380025386,189275.899713233
Activated,B,B304,B304,Kennedy King Playground,Kennedy King Playground,Play Equipment,B304-SPRAY0166,Sprinkler,B-17,1005882.34386238,179230.328597053
Activated,B,B306,B306,Playground 286,Playground 286,Play Equipment,B306-SPRAY0167,Sprinkler,B-15,1001357.12883147,154610.397193983
Activated,B,B307,B307,Tiger Playground,Tiger Playground,Play Equipment,B307-SPRAY0168,Sprinkler,B-04,1008938.18814438,190037.720696136
Activated,B,B309,B309,Pink Playground,Pink Playground,Play Equipment,B309-SPRAY0169,Sprinkler,B-05,1022348.71611329,182146.829981893
Activated,B,B311,B311,Ten Eyck Playground,Ten Eyck Playground,Play Equipment,B311-SPRAY0171,Sprinkler,B-01,1001220.19439405,197536.922561228
Activated,B,B313,B313,El Shabazz Playground,El Shabazz Playground,Play Equipment,B313-SPRAY0172,Sprinkler,B-03,1003540.76291564,188045.315560221
Activated,B,B315,B315,Surf Playground,Surf Playground,Play Equipment,B315-SPRAY0173,Sprinkler,B-13,986374.195870891,148297.139479309
Activated,B,B316,B316,DiGilio Playground,DiGilio Playground,Play Equipment,B316-SPRAY0174,Sprinkler,B-14,990597.588670805,169760.885265648
Activated,B,B317,B317,Lafayette Gardens Playground,Lafayette Gardens Playground,Play Equipment,B317-SPRAY0175,Sprinkler,B-03,996034.424909964,190575.067718565
Activated,B,B320,B320,Park Slope Playground,Park Slope Playground,Play Equipment,B320-SPRAY0176,Sprinkler,B-06,990199.398850381,185865.792360231
Activated,B,B321,B321,Edmonds Playground,Edmonds Playground,Play Equipment,B321-SPRAY0177,Sprinkler,B-02,992144.115433394,190367.546808138
Activated,B,B322,B322,Pulaski Playground,Pulaski Playground,Play Equipment,B322-SPRAY0178,Sprinkler,B-03,1000416.4312378,191980.749290391
Activated,B,B323,B323,Hattie Carthan Playground,Hattie Carthan Playground,Play Equipment,B323-SPRAY0179,Sprinkler,B-03,999187.73881331,189064.534322306
Activated,B,B329,B329,Lindower Park,Lindower Park,Play Equipment,B329-SPRAY0180,Sprinkler,B-18,1008815.83569879,162294.075724229
Activated,B,B330,B330,Hickman Playground,Hickman Playground,Play Equipment,B330-SPRAY0182,Sprinkler,B-18,1008403.19315138,165280.294489309
Broken,B,B332,B332,Evergreen Playground,Evergreen Playground,Play Equipment,B332-SPRAY0183,Sprinkler,B-04,1008999.98231214,189256.604476228
Activated,B,B334,B334,Fermi Playground,Fermi Playground,Play Equipment,B334-SPRAY0184,Sprinkler,B-04,1004126.4690933,194532.674960806
Activated,B,B337,B337,Century Playground,Century Playground,Play Equipment,B337-SPRAY0185,Sprinkler,B-13,992491.328649714,149429.950533896
Activated,B,B339,B339,Newport Playground,Newport Playground,Play Equipment,B339-SPRAY0187,Sprinkler,B-16,1010043.32372938,180060.391241386
Activated,B,B340,B340,Garden Playground,Garden Playground,Play Equipment,B340-SPRAY0188,Sprinkler,B-04,1001354.68559488,194710.023359388
Under Construction,B,B342,B342,100% Playground,100% Playground,Play Equipment,B342-SPRAY0189,Sprinkler,B-18,1012240.78455755,174807.636326983
Under Construction,B,B342,B342,100% Playground,100% Playground,Play Equipment,B342-SPRAY0190,Sprinkler,B-18,1012240.78455755,174807.636326983
Activated,B,B343,B343,Osborn Playground,Osborn Playground,Play Equipment,B343-SPRAY0191,Sprinkler,B-16,1010346.66662663,178193.547862231
Activated,B,B345,B345,Ethan Allen Playground,Ethan Allen Playground,Play Equipment,B345-SPRAY0192,Sprinkler,B-05,1015622.7984628,178187.16204822
Activated,B,B348,B348,Willoughby Playground,Willoughby Playground,Play Equipment,B348-SPRAY0193,Sprinkler,B-03,998997.184404388,192295.128582894
Activated,B,B349,B349,Bath Playground,Bath Playground,Play Equipment,B349-SPRAY0194,Sprinkler,B-11,986155.168421804,156040.41073814
Activated,B,B350,B350,Stroud Playground,Stroud Playground,Play Equipment,B350-SPRAY0195,Sprinkler,B-08,994819.04413864,185173.733704984
Activated,B,B352,B352,Curtis Playground,Curtis Playground,Play Equipment,B352-SPRAY0196,Sprinkler,B-18,1007169.45250864,172803.307986557
Activated,B,B353,B353,Bergen Beach Playground,Bergen Beach Playground,Play Equipment,B353-SPRAY0197,Sprinkler,B-18,1009363.5038948,166056.463540643
Broken,B,B357,B357,Jackie Robinson Playground,Jackie Robinson Playground,Play Equipment,B357-SPRAY0198,Sprinkler,B-09,995558.490822464,181844.404405638
Activated,B,B358,B358,De Hostos Playground,De Hostos Playground,Play Equipment,B358-SPRAY0199,Sprinkler,B-01,998302.308825641,195286.231196478
Activated,B,B360,B360,Remsen Playground,Remsen Playground,Play Equipment,B360-SPRAY0200,Sprinkler,B-18,1009960.65066638,173306.876533225
Activated,B,B361,B361,Boerum Park,Boerum Park,Play Equipment,B361-SPRAY0201,Sprinkler,B-06,986933.450985968,188713.926099643
Activated,B,B362,B362,Chester Playground,Chester Playground,Play Equipment,B362-SPRAY0202,Sprinkler,B-16,1008704.19911105,182911.959685221
Activated,B,B363,B363,Houston Playground,Houston Playground,Play Equipment,B363-SPRAY0203,Sprinkler,B-16,1010583.02803055,184192.869196891
Activated,B,B364,B364,Woods Playground,Woods Playground,Play Equipment,B364-SPRAY0204,Sprinkler,B-08,1003956.56096854,185038.857334315
Activated,B,B390,B390,Mother Cabrini Park,Mother Cabrini Park,Play Equipment,B390-SPRAY0206,Sprinkler,B-06,982889.654939726,188615.527018234
Activated,B,B395,B395,Green Central Knoll,Green Central Knoll,Play Equipment,B395-SPRAY0207,Sprinkler,B-04,1002817.69251139,195016.853782475
Activated,B,B396,B396,Nehemiah Park,Nehemiah Park,Play Equipment,B396-SPRAY0208,Sprinkler,B-16,1010461.7516983,180564.765560731
Activated,B,B397,B397,Carter G. Woodson Children's Park,Carter G. Woodson Children's Park,Play Equipment,B397-SPRAY0209,Sprinkler,B-16,1010373.36932913,182826.353557229
Activated,B,B402,B402,George Walker Jr. Park,George Walker Jr. Park,Play Equipment,B402-SPRAY0210,Sprinkler,B-05,1013342.43130438,186532.525606811
Activated,B,B405,B405,Epiphany Playground,Epiphany Playground,Play Equipment,B405-SPRAY0211,Sprinkler,B-01,993803.230553478,197425.636038392
Activated,M,M010,M010-031,Heckscher Plgd,Central Park,Play Equipment,M010-031-SPRAY0212,Sprinkler,M-13,990497.128241807,219313.085701733
Activated,M,M010,M010-048,Billy Johnson Plgd,Central Park,Play Equipment,M010-048-SPRAY0213,Sprinkler,M-13,992606.975071966,219612.361677974
Activated,M,M010,M010-059,East 72nd St Plgd,Central Park,Play Equipment,M010-059-SPRAY0214,Sprinkler,M-13,993163.374221638,220570.549722224
Activated,M,M010,M010-089,Adventure Playground,Central Park,Play Equipment,M010-089-SPRAY0215,Sprinkler,M-13,990484.401233136,221019.659060224
Activated,M,M010,M010-103,James Michael Levin Plgd,Central Park,Play Equipment,M010-103-SPRAY0216,Sprinkler,M-13,993895.858320966,221930.174299553
Activated,M,M010,M010-143,Pat Hoffman Friedman Plgd,Central Park,Play Equipment,M010-143-SPRAY0217,Sprinkler,M-13,994224.085354805,222584.444644555
Activated,M,M010,M010-164,Diana Ross Plgd,Central Park,Play Equipment,M010-164-SPRAY0218,Sprinkler,M-13,992293.080686643,224276.221444726
Activated,M,M010,M010-167,Mariner's Gate Plgd,Central Park,Play Equipment,M010-167-SPRAY0219,Sprinkler,M-13,992646.005177632,224911.741827219
Activated,M,M010,M010-169,Spector Plgd,Central Park,Play Equipment,M010-169-SPRAY0220,Sprinkler,M-13,993002.231499299,225099.078722894
Activated,M,M010,M010-176,East 96th St Plgd,Central Park,Play Equipment,M010-176-SPRAY0221,Sprinkler,M-13,996262.923468723,226265.450405895
Activated,M,M010,M010-187,Safari Plgd,Central Park,Play Equipment,M010-187-SPRAY0222,Sprinkler,M-13,993542.873462632,226529.32094115
Activated,M,M010,M010-188,Wild West Plgd,Central Park,Play Equipment,M010-188-SPRAY0223,Sprinkler,M-13,993812.6964138,227020.16575998
Activated,M,M010,M010-193,Rudin Plgd,Central Park,Play Equipment,M010-193-SPRAY0224,Sprinkler,M-13,994221.682800561,227770.737421557
Activated,M,M010,M010-195,Bendheim Plgd,Central Park,Play Equipment,M010-195-SPRAY0225,Sprinkler,M-13,996878.285426974,227250.695154562
Activated,M,M010,M010-202,West 100th St Plgd,Central Park,Play Equipment,M010-202-SPRAY0226,Sprinkler,M-13,994600.54063864,228463.093976482
Activated,M,M010,M010-207,Bernard Plgd,Central Park,Play Equipment,M010-207-SPRAY0227,Sprinkler,M-13,997992.745468393,229201.708640977
Activated,M,M010,M010-247,110th St & Lenox Ave Plgd,Central Park,Play Equipment,M010-247-SPRAY0228,Sprinkler,M-13,997616.213084966,229863.246359899
Activated,M,M011,M011,Chelsea Park,Chelsea Park,Play Equipment,M011-SPRAY0229,Sprinkler,M-04,984048.221848309,212500.629182308
Activated,M,M014,M014-02,Plgd One Fifty Two CLII,Jackie Robinson Park,Play Equipment,M014-02-SPRAY0230,Sprinkler,M-10,1000890.63271722,240921.600883558
Activated,M,M014,M014-03,"Playground One Forty Nine, CIL",Jackie Robinson Park,Play Equipment,M014-03-SPRAY0231,Sprinkler,M-10,1000584.4092483,240354.015732646
Activated,M,M015,M015,Columbus Park,Columbus Park,Play Equipment,M015-SPRAY0232,Sprinkler,M-01,984248.867772474,199821.445551231
Activated,M,M017,M017,Corlears Hook Park,Corlears Hook Park,Play Equipment,M017-SPRAY0233,Sprinkler,M-03,989929.701555132,198596.243605315
Activated,M,M018,M018,Carmansville Playground,Carmansville Playground,Play Equipment,M018-SPRAY0234,Sprinkler,M-09,999676.311326965,241378.006794899
Activated,M,M019,M019,Coleman Playground,Coleman Playground,Play Equipment,M019-SPRAY0235,Sprinkler,M-03,986046.447182551,198375.636434972
Activated,M,M022,M022,De Witt Clinton Park,De Witt Clinton Park,Play Equipment,M022-SPRAY0236,Sprinkler,M-04,985831.796037048,219149.61982131
Activated,M,M027,M027,Downing Street Playground,Downing Street Playground,Play Equipment,M027-SPRAY0237,Sprinkler,M-02,983497.666518971,205182.003071561
Activated,M,M028,M028-02,Lily Brown Playground,Fort Washington Park,Play Equipment,M028-02-SPRAY0238,Sprinkler,M-12,999142.197565809,244871.236685067
Activated,M,M029,M029-01,Jacob Javits Plgd,Fort Tryon Park,Play Equipment,M029-01-SPRAY0239,Sprinkler,M-12,1002376.37384022,252207.318797647
Activated,M,M029,M029-02,Anne Loftus Plgd,Fort Tryon Park,Play Equipment,M029-02-SPRAY0240,Sprinkler,M-12,1003899.93378521,254502.516306981
Activated,M,M033,M033,Hamilton Fish Park,Hamilton Fish Park,Play Equipment,M033-SPRAY0241,Sprinkler,M-03,989581.766883552,201484.190585315
Activated,M,M037,M037-03,Quisqueya Plgd,Highbridge Park,Play Equipment,M037-03-SPRAY0242,Sprinkler,M-12A,1003326.75284497,247959.660954386
Activated,M,M037,M037-04,Wallenberg Plgd,Highbridge Park,Play Equipment,M037-04-SPRAY0243,Sprinkler,M-12A,1004473.0333608,250025.126967802
Activated,M,M037,M037-09,Ft George Plgd,Highbridge Park,Play Equipment,M037-09-SPRAY0244,Sprinkler,M-12A,1004739.15028263,252031.888374224
Activated,M,M037,M037-10,Adventure Plgd,Highbridge Park,Play Equipment,M037-10-SPRAY0245,Sprinkler,M-12A,1001768.66934697,243987.752887725
Activated,M,M038,M038,James J Walker Park,James J Walker Park,Play Equipment,M038-SPRAY0246,Sprinkler,M-02,982544.79768981,205162.038872644
Activated,M,M041,M041,Alexander Hamilton Playground,Alexander Hamilton Playground,Play Equipment,M041-SPRAY0247,Sprinkler,M-09,997732.627878382,239150.872797727
Activated,M,M042,M042-01,Payson Plgd,Inwood Hill Park,Play Equipment,M042-01-SPRAY0248,Sprinkler,M-12,1003947.49930688,255237.953812479
Activated,M,M042,M042-02,Emerson Plgd,Inwood Hill Park,Play Equipment,M042-02-SPRAY0249,Sprinkler,M-12,1005753.50061613,256135.62557356
Activated,M,M042,M042-03,Indian Road Plgd,Inwood Hill Park,Play Equipment,M042-03-SPRAY0250,Sprinkler,M-12,1006412.61642389,256871.440046817
Activated,M,M045,M045,John Jay Park,John Jay Park,Play Equipment,M045-SPRAY0251,Sprinkler,M-08,998242.784338384,219535.258813813
Activated,M,M047,M047-01,Thomas Jefferson Park Playground,Thomas Jefferson Park,Play Equipment,M047-01-SPRAY0252,Sprinkler,M-11,1002525.59762313,228337.241209805
Activated,M,M052,M052-02,Madison Square Park,Madison Square Park,Play Equipment,M052-02-SPRAY0253,Sprinkler,M-05,987763.667829468,209791.666752472
Activated,M,M056,M056-01,Playground 123,Morningside Park,Play Equipment,M056-01-SPRAY0254,Sprinkler,M-09,996446.612405806,234325.852264061
Activated,M,M056,M056-02,Morningside Plgd,Morningside Park,Play Equipment,M056-02-SPRAY0255,Sprinkler,M-09,995938.988749131,233241.356401562
Activated,M,M056,M056-02,Morningside Plgd,Morningside Park,Play Equipment,M056-02-SPRAY0256,Sprinkler,M-09,995938.988749131,233241.356401562
Activated,M,M056,M056-ZN04,Morningside Park Zone 4,Morningside Park,Play Equipment,M056-ZN04-SPRAY0257,Sprinkler,M-09,995422.553430304,232695.729211971
Activated,M,M058,M058-07,Marcus Garvey Memorial Park,Marcus Garvey Park,Play Equipment,M058-07-SPRAY0258,Sprinkler,M-11,999889.347318217,232889.498181387
Activated,M,M058,M058-ZN02,Marcus Garvey Park Zone 2,Marcus Garvey Park,Play Equipment,M058-ZN02-SPRAY0259,Sprinkler,M-11,1000102.36526489,232131.148648232
Activated,M,M064,M064,Lillian D Wald Playground,Lillian D Wald Playground,Play Equipment,M064-SPRAY0260,Sprinkler,M-03,988584.854835391,198692.858897641
Activated,M,M065,M065,Luther Gulick Park,Luther Gulick Park,Play Equipment,M065-SPRAY0261,Sprinkler,M-03,989279.487960547,200092.977816566
Activated,M,M066,M066,Dr. Gertrude B. Kelly Playground,Dr. Gertrude B. Kelly Playground,Play Equipment,M066-SPRAY0262,Sprinkler,M-04,983693.656284466,209481.493160232
Activated,M,M069,M069,Vesuvio Playground,Vesuvio Playground,Play Equipment,M069-SPRAY0263,Sprinkler,M-02,983534.965656966,203556.443002477
Activated,M,M071,M071-03,Classic Plgd,Riverside Park,Play Equipment,M071-03-SPRAY0264,Sprinkler,M-14,988017.25229606,224696.653346642
Activated,M,M071,M071-04,Neufeld Plgd,Riverside Park,Play Equipment,M071-04-SPRAY0265,Sprinkler,M-14,988435.16418989,224682.209149807
Activated,M,M071,M071-08,River Run Plgd,Riverside Park,Play Equipment,M071-08-SPRAY0266,Sprinkler,M-14,989177.772940889,226020.013232722
Activated,M,M071,M071-13,Hippo Plgd,Riverside Park,Play Equipment,M071-13-SPRAY0267,Sprinkler,M-14,990281.994813799,228206.954396888
Activated,M,M071,M071-16,Dinosaur Plgd,Riverside Park,Play Equipment,M071-16-SPRAY0268,Sprinkler,M-14,991180.940522476,229646.552239477
Activated,M,M071,M071-31,Claremont,Riverside Park,Play Equipment,M071-31-SPRAY0269,Sprinkler,M-14,994739.427828058,236218.152285233
Not Yet Activated,M,M071,M071-34,Tot Lot One Hundred Five,Riverside Park,Play Equipment,M071-34-SPRAY0270,Sprinkler,M-14,992292.700109973,231380.195425733
Activated,M,M072,M072-01,Riverbank Plgd,Riverside Park,Play Equipment,M072-01-SPRAY0271,Sprinkler,M-14,997050.073141142,240100.736711636
Activated,M,M076,M076,St. Vartan Park,St. Vartan Park,Play Equipment,M076-SPRAY0272,Sprinkler,M-06,991468.395328134,210789.336345061
Activated,M,M077,M077-03,Arlington Edinboro Playground,St. Nicholas Park,Play Equipment,M077-03-SPRAY0273,Sprinkler,M-09,998980.080107882,238214.764105647
Activated,M,M077,M077-04,St Nicholas,St. Nicholas Park,Play Equipment,M077-04-SPRAY0274,Sprinkler,M-09,997862.366135969,235756.782144978
Activated,M,M079,M079,St. Catherine's Park,St. Catherine's Park,Play Equipment,M079-SPRAY0275,Sprinkler,M-08,995684.57948105,218060.399558812
Activated,M,M081,M081-02,Catbird Playground,Carl Schurz Park,Play Equipment,M081-02-SPRAY0276,Sprinkler,M-08,999553.220693886,221256.495856896
Activated,M,M082,M082,Seward Park,Seward Park,Play Equipment,M082-SPRAY0277,Sprinkler,M-03,987236.162322804,199694.011094808
Activated,M,M087,M087,Sakura Park,Sakura Park,Play Equipment,M087-SPRAY0278,Sprinkler,M-14,994747.058062136,235502.411590725
Activated,M,M088,M088-01,Tompkins Square Park,Tompkins Square Park,Play Equipment,M088-01-SPRAY0279,Sprinkler,M-03,989083.121227309,204063.505308553
Activated,M,M088,M088-03,Tompkins Square Park,Tompkins Square Park,Play Equipment,M088-03-SPRAY0280,Sprinkler,M-03,989394.53759922,203639.867704391
Activated,M,M098,M098-01,Washington Square Park,Washington Square Park,Play Equipment,M098-01-SPRAY0281,Sprinkler,M-02,985168.497494891,205525.855074137
Activated,M,M098,M098-02,Washington Square Park,Washington Square Park,Play Equipment,M098-02-SPRAY0282,Sprinkler,M-02,984924.134794637,205788.396215721
Activated,M,M099,M099-01,J Hood Wright Park Playground,J. Hood Wright Park,Play Equipment,M099-01-SPRAY0284,Sprinkler,M-12,1000586.83936154,247469.440478146
Activated,M,M105,M105,Sara D. Roosevelt Park,Sara D. Roosevelt Park,Play Equipment,M105-SPRAY0285,Sprinkler,M-03,986297.320696547,201457.850414887
Activated,M,M105,M105,Sara D. Roosevelt Park,Sara D. Roosevelt Park,Play Equipment,M105-SPRAY0286,Sprinkler,M-03,986297.320696547,201457.850414887
Activated,M,M105,M105-01,Houston St Plgd,Sara D. Roosevelt Park,Play Equipment,M105-01-SPRAY0287,Sprinkler,M-03,986752.716111227,202630.235537305
Activated,M,M105,M105-04,Rivington St Plgd,Sara D. Roosevelt Park,Play Equipment,M105-04-SPRAY0288,Sprinkler,M-03,986541.113516047,202086.56470865
Activated,M,M105,M105-08,Hester St Plgd,Sara D. Roosevelt Park,Play Equipment,M105-08-SPRAY0289,Sprinkler,M-03,985978.115954384,200642.195550143
Activated,M,M108Q,M108Q,Twenty-Four Sycamores Park,Twenty-Four Sycamores Park,Play Equipment,M108Q-SPRAY0290,Sprinkler,M-08,995700.634567052,215969.860432803
Activated,M,M110,M110,William McCray Playground,William McCray Playground,Play Equipment,M110-SPRAY0291,Sprinkler,M-10,1001485.30016306,236410.534774482
Activated,M,M113,M113,Joseph C. Sauer Park,Joseph C. Sauer Park,Play Equipment,M113-SPRAY0292,Sprinkler,M-03,989866.859161138,204570.115187719
Activated,M,M116,M116,ABC Playground,ABC Playground,Play Equipment,M116-SPRAY0293,Sprinkler,M-03,988122.997819468,202245.402317479
Activated,M,M124,M124,First Park,First Park,Play Equipment,M124-SPRAY0294,Sprinkler,M-03,987121.762617215,202873.753422975
Activated,M,M132,M132,Little Flower Playground,Little Flower Playground,Play Equipment,M132-SPRAY0295,Sprinkler,M-03,987511.085985556,198836.786431312
Activated,M,M140,M140-01,Ten Mile River Plgd,Recreational Area,Play Equipment,M140-01-SPRAY0296,Sprinkler,M-14,997440.363699138,241592.524082392
Activated,M,M141,M141,Harlem Lane Playground,Harlem Lane Playground,Play Equipment,M141-SPRAY0297,Sprinkler,M-10,1002314.52555769,239995.738524841
Activated,M,M144,M144-01,East River Playground,John V. Lindsay East River Park,Play Equipment,M144-01-SPRAY0298,Sprinkler,M-03,991870.194065228,203223.642815053
Activated,M,M154,M154,Mathews-Palmer Playground,Mathews-Palmer Playground,Play Equipment,M154-SPRAY0299,Sprinkler,M-04,986262.430674463,216673.87247622
Activated,M,M155,M155,Courtney Callender Playground,Courtney Callender Playground,Play Equipment,M155-SPRAY0300,Sprinkler,M-10,1000827.77129438,234403.653289556
Activated,M,M159,M159,Frederick Johnson Playground,Frederick Johnson Playground,Play Equipment,M159-SPRAY0301,Sprinkler,M-10,1002117.94850406,239742.985458642
Activated,M,M160,M160,Fred Samuel Playground,Fred Samuel Playground,Play Equipment,M160-SPRAY0302,Sprinkler,M-10,1001068.88367305,236994.845285639
Activated,M,M161,M161,McCaffrey Playground,McCaffrey Playground,Play Equipment,M161-SPRAY0303,Sprinkler,M-04,986664.861956223,215796.076331555
Activated,M,M164,M164,Asser Levy Playground,Asser Levy Playground,Play Equipment,M164-SPRAY0304,Sprinkler,M-06,991007.665934637,207583.370972231
Activated,M,M165,M165,Baruch Playground,Baruch Playground,Play Equipment,M165-SPRAY0305,Sprinkler,M-03,990674.859841719,200611.136557146
Activated,M,M184,M184,Samuel N. Bennerson 2nd Playground,Samuel N. Bennerson 2nd Playground,Play Equipment,M184-SPRAY0306,Sprinkler,M-07,987863.442892387,221202.000559061
Activated,M,M186,M186,Col. Young Playground,Col. Young Playground,Play Equipment,M186-SPRAY0307,Sprinkler,M-10,1002091.67559072,237744.277513816
Activated,M,M187,M187,Marx Brothers Playground,Marx Brothers Playground,Play Equipment,M187-SPRAY0308,Sprinkler,M-11,999157.418335884,225035.920712724
Activated,M,M193,M193,Abraham Lincoln Playground,Abraham Lincoln Playground,Play Equipment,M193-SPRAY0309,Sprinkler,M-11,1001637.58791622,235187.906970396
Activated,M,M194,M194,Alfred E. Smith Playground,Alfred E. Smith Playground,Play Equipment,M194-SPRAY0310,Sprinkler,M-03,984948.269260808,198166.487246975
Activated,M,M196,M196,Playground One,Playground One,Play Equipment,M196-SPRAY0311,Sprinkler,M-03,984970.84434688,198774.967329233
Activated,M,M198,M198,"Martin Luther King, Jr. Playground","Martin Luther King, Jr. Playground",Play Equipment,M198-SPRAY0312,Sprinkler,M-10,997985.363593384,230818.318268641
Activated,M,M199,M199,Monsignor Kett Playground,Monsignor Kett Playground,Play Equipment,M199-SPRAY0313,Sprinkler,M-12A,1006125.76463538,253529.698042646
Activated,M,M200A,M200A,Anibal Aviles Playground,Anibal Aviles Playground,Play Equipment,M200A-SPRAY0314,Sprinkler,M-07,994536.197919547,231172.68632631
Activated,M,M201,M201,Wald Playground,Wald Playground,Play Equipment,M201-SPRAY0315,Sprinkler,M-03,990658.243077054,201479.971761733
Activated,M,M204,M204,Moore Playground,Moore Playground,Play Equipment,M204-SPRAY0316,Sprinkler,M-11,1001276.81632804,234160.922147721
Activated,M,M206,M206,Tanahey Playground,Tanahey Playground,Play Equipment,M206-SPRAY0317,Sprinkler,M-03,985586.204992801,198007.058103889
Activated,M,M208A,M208A,Alice Kornegay Triangle,Alice Kornegay Triangle,Play Equipment,M208A-SPRAY0318,Sprinkler,M-11,1002156.9297253,233081.291432976
Activated,M,M211A,M211A,St. Nicholas Playground South,St. Nicholas Playground South,Play Equipment,M211A-SPRAY0319,Sprinkler,M-10,998850.177480548,234767.395016148
Activated,M,M211B,M211B,St. Nicholas Playground North,St. Nicholas Playground North,Play Equipment,M211B-SPRAY0320,Sprinkler,M-10,999025.069191142,235197.489956483
Activated,M,M213,M213,Mae Grant Playground,Mae Grant Playground,Play Equipment,M213-SPRAY0321,Sprinkler,M-11,998249.869297966,227988.075241476
Activated,M,M215,M215,Cherry Tree Park,Cherry Tree Park,Play Equipment,M215-SPRAY0322,Sprinkler,M-11,998869.739121213,226093.583295553
Activated,M,M216,M216,Holcombe Rucker Park,Holcombe Rucker Park,Play Equipment,M216-SPRAY0323,Sprinkler,M-10,1001968.88581004,241417.922397479
Activated,M,M217,M217,Howard Bennett Playground,Howard Bennett Playground,Play Equipment,M217-SPRAY0324,Sprinkler,M-10,1001218.30857105,235733.617493137
Activated,M,M218,M218,DeSalvio Playground,DeSalvio Playground,Play Equipment,M218-SPRAY0325,Sprinkler,M-02,985327.708134472,202192.587134391
Activated,M,M219,M219,Tecumseh Playground,Tecumseh Playground,Play Equipment,M219-SPRAY0326,Sprinkler,M-07,990199.098326057,224110.330700397
Activated,M,M220,M220,Frederick Douglass Playground,Frederick Douglass Playground,Play Equipment,M220-SPRAY0327,Sprinkler,M-07,993240.291062548,229683.416995137
Activated,M,M223,M223,Jacob H. Schiff Playground,Jacob H. Schiff Playground,Play Equipment,M223-SPRAY0328,Sprinkler,M-09,997528.932419642,238215.046257317
Activated,M,M226,M226,Augustus St. Gaudens Playground,Augustus St. Gaudens Playground,Play Equipment,M226-SPRAY0329,Sprinkler,M-06,989195.963521301,207257.805022314
Activated,M,M229,M229,Happy Warrior Playground,Happy Warrior Playground,Play Equipment,M229-SPRAY0330,Sprinkler,M-07,992945.240143477,229095.054654806
Activated,M,M230,M230,Poor Richard's Playground,Poor Richard's Playground,Play Equipment,M230-SPRAY0331,Sprinkler,M-11,1000076.52968664,228071.206308811
Activated,M,M233,M233,Matthew P. Sapolin Playground,Matthew P. Sapolin Playground,Play Equipment,M233-SPRAY0332,Sprinkler,M-07,988692.905800387,222490.335252732
Activated,M,M234,M234,Wright Brothers Playground,Wright Brothers Playground,Play Equipment,M234-SPRAY0333,Sprinkler,M-12A,1000370.04517571,242283.448881641
Activated,M,M235,M235,Sol Lain Plgd,Sol Lain Plgd,Play Equipment,M235-SPRAY0334,Sprinkler,M-03,988711.633125141,199495.637475803
Activated,M,M236,M236,Samuel Seabury Playground,Samuel Seabury Playground,Play Equipment,M236-SPRAY0335,Sprinkler,M-08,997867.351362213,225403.812037304
Activated,M,M237,M237,Corporal John A. Seravalli Playground,Corporal John A. Seravalli Playground,Play Equipment,M237-SPRAY0336,Sprinkler,M-02,982921.585978224,208540.19747065
Activated,M,M238,M238,Bloomingdale Playground,Bloomingdale Playground,Play Equipment,M238-SPRAY0337,Sprinkler,M-07,993663.235754728,230438.800654977
Activated,M,M239,M239,P.S. 155 Playground,P.S. 155 Playground,Play Equipment,M239-SPRAY0338,Sprinkler,M-11,1002124.4219163,229767.566433146
Activated,M,M240,M240,Audubon Playground,Audubon Playground,Play Equipment,M240-SPRAY0339,Sprinkler,M-12A,1001368.20459672,245904.822216317
Activated,M,M241,M241,Nathan Straus Playground,Nathan Straus Playground,Play Equipment,M241-SPRAY0340,Sprinkler,M-03,988658.97378163,201355.910001978
Activated,M,M244,M244,Sol Bloom Playground,Sol Bloom Playground,Play Equipment,M244-SPRAY0341,Sprinkler,M-07,992896.644440144,226961.844354316
Activated,M,M251,M251,Bleecker Playground,Bleecker Playground,Play Equipment,M251-SPRAY0342,Sprinkler,M-02,982726.653953388,207559.228632062
Activated,M,M256,M256,MacArthur Playground,MacArthur Playground,Play Equipment,M256-SPRAY0343,Sprinkler,M-06,993906.388811722,213326.765325307
Activated,M,M257,M257,Clement Clarke Moore Park,Clement Clarke Moore Park,Play Equipment,M257-SPRAY0344,Sprinkler,M-04,983057.642464637,211294.408169552
Activated,M,M258,M258,East River Playground,East River Playground,Play Equipment,M258-SPRAY0345,Sprinkler,M-15,1001363.46444872,226848.20219314
Activated,M,M263,M263,Bellevue South Park,Bellevue South Park,Play Equipment,M263-SPRAY0346,Sprinkler,M-06,990330.5675513,208891.190863147
Activated,M,M264,M264,Playground Eighty Nine LXXXIX,Playground Eighty Nine LXXXIX,Play Equipment,M264-SPRAY0347,Sprinkler,M-07,992033.691113561,226602.619350969
Activated,M,M270,M270,Dry Dock Playground,Dry Dock Playground,Play Equipment,M270-SPRAY0348,Sprinkler,M-03,991053.138940811,203582.438029229
Activated,M,M288,M288,Ramon Aponte Park,Ramon Aponte Park,Play Equipment,M288-SPRAY0349,Sprinkler,M-04,987200.152880385,216692.898684889
Activated,M,M294,M294,Ruppert Park,Ruppert Park,Play Equipment,M294-SPRAY0350,Sprinkler,M-08,998060.811605215,223804.873306065
Activated,M,M295,M295,Mercer Playground,Mercer Playground,Play Equipment,M295-SPRAY0351,Sprinkler,M-02,985292.592391058,204356.005707815
Activated,M,M308,M308,Washington Market Park,Washington Market Park,Play Equipment,M308-SPRAY0352,Sprinkler,M-01,981047.305934131,200532.223001062
Activated,Q,Q001,Q001-01,Wild Flower Meadow Playground,Alley Pond Park,Play Equipment,Q001-01-SPRAY0353,Sprinkler,Q-07A,1055910.79498638,209965.363583564
Activated,Q,Q001,Q001-04,Horatio Playground,Alley Pond Park,Play Equipment,Q001-04-SPRAY0354,Sprinkler,Q-07A,1052448.37441781,215794.761373564
Activated,Q,Q002,Q002,Grover Cleveland Playground,Grover Cleveland Playground,Play Equipment,Q002-SPRAY0355,Sprinkler,Q-05,1008927.57825747,198514.134845644
Under Construction,Q,Q004,Q004-01,Charybdis Playground,Astoria Park,Play Equipment,Q004-01-SPRAY0356,Sprinkler,Q-01,1005839.8573988,223227.67039223
Activated,Q,Q005,Q005-01,Sutphin Playground,Baisley Pond Park,Play Equipment,Q005-01-SPRAY0357,Sprinkler,Q-12,1042757.18185797,185177.678250893
Activated,Q,Q005,Q005-04,Lakeview Lane Playground,Baisley Pond Park,Play Equipment,Q005-04-SPRAY0358,Sprinkler,Q-12,1044608.7385223,186261.568799644
Activated,Q,Q005,Q005-05,157 St Playground,Baisley Pond Park,Play Equipment,Q005-05-SPRAY0359,Sprinkler,Q-12,1043577.68481013,188580.363046556
Activated,Q,Q005,Q005-11,Baisley Park South,Baisley Pond Park,Play Equipment,Q005-11-SPRAY0360,Sprinkler,Q-12,1042945.2142903,183082.261509969
Activated,Q,Q006,Q006-01,Bowne Playground,Bowne Park,Play Equipment,Q006-01-SPRAY0361,Sprinkler,Q-07,1037970.00672104,220029.180398136
Activated,Q,Q007,Q007-01,Bayswater Playground,Bayswater Park,Play Equipment,Q007-01-SPRAY0363,Sprinkler,Q-14,1048910.72499705,157615.783243566
Activated,Q,Q009,Q009-01,MacNeil Playground,Macneil Park,Play Equipment,Q009-01-SPRAY0364,Sprinkler,Q-07,1025381.15624263,228361.851396814
Activated,Q,Q011,Q011,Poppenhusen Playground,Poppenhusen Playground,Play Equipment,Q011-SPRAY0365,Sprinkler,Q-07,1027293.3696098,223948.798215061
Activated,Q,Q012,Q012-01,Buz O'Rourke Playground,Crocheron Park,Play Equipment,Q012-01-SPRAY0366,Sprinkler,Q-07A,1047562.82939888,220319.614528566
Under Construction,Q,Q015,Q015-02,Sobelsohn Park,Forest Park,Play Equipment,Q015-02-SPRAY0367,Sprinkler,Q-16,1029779.93189388,197854.462280482
Activated,Q,Q015,Q015-03,Jackson Pond Playground,Forest Park,Play Equipment,Q015-03-SPRAY0368,Sprinkler,Q-16,1027671.53387972,194714.838966563
Activated,Q,Q015,Q015-05,Greenhouse Playground,Forest Park,Play Equipment,Q015-05-SPRAY0369,Sprinkler,Q-16,1024154.85160863,194861.401993647
Activated,Q,Q015,Q015-08,Dry Harbor Playground,Forest Park,Play Equipment,Q015-08-SPRAY0370,Sprinkler,Q-16,1020915.31838955,195262.660705566
Activated,Q,Q015,Q015-09,Giovanelli Playground,Forest Park,Play Equipment,Q015-09-SPRAY0371,Sprinkler,Q-16,1026516.8436038,193941.84280914
Activated,Q,Q015,Q015-10,Mary Whalen Playground,Forest Park,Play Equipment,Q015-10-SPRAY0372,Sprinkler,Q-16,1021650.77558004,192760.48362331
Under Construction,Q,Q020,Q020-01,Lower Highland Playground,Highland Park,Play Equipment,Q020-01-SPRAY0374,Sprinkler,Q-05A,1016008.50372813,188525.723063975
Activated,Q,Q021,Q021-02,Redwood Playground,Cunningham Park,Play Equipment,Q021-02-SPRAY0375,Sprinkler,Q-08,1046460.89951613,204200.546373054
Activated,Q,Q021,Q021-03,210 St Playground,Cunningham Park,Play Equipment,Q021-03-SPRAY0376,Sprinkler,Q-08,1049278.67340813,208693.83134973
Activated,Q,Q021B,Q021B,McLaughlin Playground,McLaughlin Playground,Play Equipment,Q021B-SPRAY0377,Sprinkler,Q-08,1049028.59418389,203700.590351983
Activated,Q,Q022,Q022,Margaret I. Carman Green - Weeping Beech,Margaret I. Carman Green - Weeping Beech,Play Equipment,Q022-SPRAY0378,Sprinkler,Q-07,1032827.8368873,217451.305304557
Activated,Q,Q023,Q023-01,Rufus King Park Playground,Rufus King Park,Play Equipment,Q023-01-SPRAY0379,Sprinkler,Q-12,1038743.28601439,195865.579775303
Activated,Q,Q024,Q024-03,Four Winds Playground,Kissena Park,Play Equipment,Q024-03-SPRAY0380,Sprinkler,Q-07,1037379.23887372,209857.160059809
Under Construction,Q,Q026,Q026,Park Of The Americas,Park Of The Americas,Play Equipment,Q026-SPRAY0381,Sprinkler,Q-04,1022499.76994505,212145.330352231
Activated,Q,Q031,Q031,Lawrence Virgilio Playground,Lawrence Virgilio Playground,Play Equipment,Q031-SPRAY0382,Sprinkler,Q-02,1008980.45872913,211612.75038065
Activated,Q,Q038,Q038,Benninger Playground,Benninger Playground,Play Equipment,Q038-SPRAY0383,Sprinkler,Q-05,1012451.43800763,196892.61512281
Activated,Q,Q041,Q041,Newtown Playground,Newtown Playground,Play Equipment,Q041-SPRAY0384,Sprinkler,Q-04,1020408.28593905,207562.207956805
Activated,Q,Q044,Q044,L/CPL Thomas P. Noonan Jr. Playground,L/CPL Thomas P. Noonan Jr. Playground,Play Equipment,Q044-SPRAY0385,Sprinkler,Q-02,1005731.3792693,209288.920054554
Activated,Q,Q045,Q045,Andrews Grove,Andrews Grove,Play Equipment,Q045-SPRAY0386,Sprinkler,Q-02,996769.91654922,210114.302590146
Activated,Q,Q046,Q046,Josephine Caminiti Playground,Josephine Caminiti Playground,Play Equipment,Q046-SPRAY0387,Sprinkler,Q-04,1022618.7293528,210334.329709142
Activated,Q,Q051,Q051-01,174 St Playground,St. Albans Park,Play Equipment,Q051-01-SPRAY0388,Sprinkler,Q-12,1045815.79450713,192012.492665231
Activated,Q,Q053,Q053,Equity Playground,Equity Playground,Play Equipment,Q053-SPRAY0389,Sprinkler,Q-09,1024908.34189955,191170.715149313
Activated,Q,Q066B,Q066B,Triborough Bridge Playground B,Triborough Bridge Playground B,Play Equipment,Q066B-SPRAY0390,Sprinkler,Q-01,1005475.57958404,221522.549130558
Activated,Q,Q066F,Q066F,Hoyt Playground,Hoyt Playground,Play Equipment,Q066F-SPRAY0391,Sprinkler,Q-01,1007180.45806404,220395.723628312
Under Construction,Q,Q067A,Q067A,General Hart Playground,General Hart Playground,Play Equipment,Q067A-SPRAY0392,Sprinkler,Q-02,1012699.43554313,212084.447928056
Activated,Q,Q082,Q082,Wayanda Park,Wayanda Park,Play Equipment,Q082-SPRAY0393,Sprinkler,Q-13,1056656.77052855,198427.520517557
Activated,Q,Q085,Q085,Gorman Playground,Gorman Playground,Play Equipment,Q085-SPRAY0394,Sprinkler,Q-03,1016318.82495789,217055.073157399
Activated,Q,Q086,Q086-01,Leonardo Ingravallo Playground,Flushing Fields,Play Equipment,Q086-01-SPRAY0395,Sprinkler,Q-07,1034867.2560368,221933.79797998
Activated,Q,Q089B,Q089B-01,Harvey Playground,Harvey Park,Play Equipment,Q089B-01-SPRAY0396,Sprinkler,Q-07,1033046.49524264,224406.21134223
Activated,Q,Q092,Q092,Police Officer Edward Byrne Park,Police Officer Edward Byrne Park,Play Equipment,Q092-SPRAY0397,Sprinkler,Q-10,1037668.75305847,182464.775868311
Activated,Q,Q094,Q094-01,Addabbo Playground,Tudor Park,Play Equipment,Q094-01-SPRAY0398,Sprinkler,Q-10,1024727.45643454,184541.572567731
Activated,Q,Q096E,Q096E,Lefferts Playground,Lefferts Playground,Play Equipment,Q096E-SPRAY0399,Sprinkler,Q-10,1033838.33355397,181778.701781138
Activated,Q,Q098,Q098,Frank D. O'Connor Playground,Frank D. O'Connor Playground,Play Equipment,Q098-SPRAY0400,Sprinkler,Q-04,1015638.69278797,210446.192018225
Activated,Q,Q099,Q099-01,World's Fair Playground,Flushing Meadows Corona Park,Play Equipment,Q099-01-SPRAY0401,Sprinkler,Q-06,1026954.43688872,208013.12765865
Activated,Q,Q099,Q099-15,Triassic Playground,Flushing Meadows Corona Park,Play Equipment,Q099-15-SPRAY0402,Sprinkler,Q-15,1029975.25925913,205208.429527893
Activated,Q,Q099,Q099-16,Jurassic Playground,Flushing Meadows Corona Park,Play Equipment,Q099-16-SPRAY0403,Sprinkler,Q-15,1027577.12002655,207167.035190731
Activated,Q,Q099,Q099-17,Lawrence Playground,Flushing Meadows Corona Park,Play Equipment,Q099-17-SPRAY0404,Sprinkler,Q-15,1030334.41438071,212086.950547724
Activated,Q,Q099,Q099-18,Playground For All Children,Flushing Meadows Corona Park,Play Equipment,Q099-18-SPRAY0405,Sprinkler,Q-15,1026006.23898197,209331.703433558
Activated,Q,Q099,Q099-20,Albert H. Mauro Playground,Flushing Meadows Corona Park,Play Equipment,Q099-20-SPRAY0406,Sprinkler,Q-15,1032224.67142696,202605.422922894
Activated,Q,Q101,Q101,Middle Village Playground,Middle Village Playground,Play Equipment,Q101-SPRAY0407,Sprinkler,Q-05,1019285.65498222,198008.609938055
Activated,Q,Q102,Q102-03,Juniper South Playground,Juniper Valley Park,Play Equipment,Q102-03-SPRAY0408,Sprinkler,Q-05,1016661.23175339,201031.482829317
Activated,Q,Q103,Q103,Kennedy Playground,Kennedy Playground,Play Equipment,Q103-SPRAY0409,Sprinkler,Q-11,1045370.31180229,220509.455684304
Activated,Q,Q104,Q104-01,Vernon Playground,Queensbridge Park,Play Equipment,Q104-01-SPRAY0410,Sprinkler,Q-01,998937.269826054,215102.803767979
Activated,Q,Q105,Q105,Howard Von Dohlen Playground,Howard Von Dohlen Playground,Play Equipment,Q105-SPRAY0411,Sprinkler,Q-12,1036107.91595704,194156.740345224
Activated,Q,Q106,Q106,Daniel M. O'Connell Playground,Daniel M. O'Connell Playground,Play Equipment,Q106-SPRAY0412,Sprinkler,Q-12,1051325.0321763,194349.794092983
Activated,Q,Q107,Q107-01,Springfield Playground,Springfield Park,Play Equipment,Q107-01-SPRAY0413,Sprinkler,Q-13,1050130.13266322,179812.836946472
Activated,Q,Q108,Q108,Laurelton Playground,Laurelton Playground,Play Equipment,Q108-SPRAY0414,Sprinkler,Q-13,1057337.33084721,183485.579272896
Activated,Q,Q118,Q118,Police Officer Nicholas Demutiis Park,Police Officer Nicholas Demutiis Park,Play Equipment,Q118-SPRAY0415,Sprinkler,Q-10,1028825.87966813,187705.599376142
Activated,Q,Q119,Q119,Frederick B. Judge Playground,Frederick B. Judge Playground,Play Equipment,Q119-SPRAY0416,Sprinkler,Q-10,1037467.01396064,188320.750048726
Activated,Q,Q120,Q120,Harvard Playground,Harvard Playground,Play Equipment,Q120-SPRAY0417,Sprinkler,Q-12,1044810.82210764,197703.536401227
Activated,Q,Q121,Q121-02,K.l. Williams Playground (Tennis),Detective Keith L Williams Park,Play Equipment,Q121-02-SPRAY0418,Sprinkler,Q-12,1044198.05299197,195063.058414474
Activated,Q,Q122,Q122,Junction Playground,Junction Playground,Play Equipment,Q122-SPRAY0419,Sprinkler,Q-03,1019673.17848539,214262.624017894
Activated,Q,Q126,Q126-01,Francis Lewis Playground,Francis Lewis Park,Play Equipment,Q126-01-SPRAY0420,Sprinkler,Q-07,1032814.44091671,229501.643080472
Activated,Q,Q127,Q127,Marconi Park,Marconi Park,Play Equipment,Q127-SPRAY0421,Sprinkler,Q-12,1040799.06208655,191844.99693723
Activated,Q,Q128,Q128,London Planetree Playground,London Planetree Playground,Play Equipment,Q128-SPRAY0422,Sprinkler,Q-09,1024951.58656372,189289.766155317
Activated,Q,Q129,Q129,"Phil ""Scooter"" Rizzuto Park","Phil ""Scooter"" Rizzuto Park",Play Equipment,Q129-SPRAY0423,Sprinkler,Q-09,1033724.42925421,192458.64039497
Activated,Q,Q131,Q131-01,Virginia Principe Playground,Frank Principe Park,Play Equipment,Q131-01-SPRAY0424,Sprinkler,Q-05,1010818.68339914,204233.355362564
Activated,Q,Q134,Q134,Breininger Park,Breininger Park,Play Equipment,Q134-SPRAY0425,Sprinkler,Q-13,1059370.87008722,203831.437203139
Activated,Q,Q141,Q141,Murray Playground,Murray Playground,Play Equipment,Q141-SPRAY0426,Sprinkler,Q-02,998430.485406547,211516.356872648
Activated,Q,Q162E,Q162E,Beach 59th St Playground,Beach 59th St Playground,Play Equipment,Q162E-SPRAY0427,Sprinkler,Q-14,1042848.7912548,153971.317435398
Activated,Q,Q163,Q163-21,Rockaway Beach Playground,Rockaway Beach Boardwalk,Play Equipment,Q163-21-SPRAY0428,Sprinkler,Q-14,1039276.82661397,152971.470025643
Activated,Q,Q163,Q163-02,Sandpiper Playground,Rockaway Beach Boardwalk,Play Equipment,Q163-ZN07A-SPRAY0429,Sprinkler,Q-14,1032180.17578105,150706.269175469
Activated,Q,Q174A,Q174A,St. Michael's Playground,St. Michael's Playground,Play Equipment,Q174A-SPRAY0430,Sprinkler,Q-01,1011911.61592455,215809.690477564
Activated,Q,Q205A,Q205A,Big Bush Playground,Big Bush Playground,Play Equipment,Q205A-SPRAY0431,Sprinkler,Q-02,1011233.35022072,208750.760369732
Activated,Q,Q205B,Q205B,Nathan Weidenbaum Playground,Nathan Weidenbaum Playground,Play Equipment,Q205B-SPRAY0432,Sprinkler,Q-02,1011340.23419331,208223.419560894
Activated,Q,Q211,Q211,Maple Playground,Maple Playground,Play Equipment,Q211-SPRAY0433,Sprinkler,Q-07,1032431.05421631,214710.148385316
Activated,Q,Q212,Q212,Queens Valley Playground,Queens Valley Playground,Play Equipment,Q212-SPRAY0434,Sprinkler,Q-08,1033111.60928563,202318.420216053
Activated,Q,Q218,Q218,Dutch Kills Playground,Dutch Kills Playground,Play Equipment,Q218-SPRAY0435,Sprinkler,Q-01,1002742.85735921,215168.558885812
Activated,Q,Q220B,Q220B,Norelli-Hargreaves Playground,Norelli-Hargreaves Playground,Play Equipment,Q220B-SPRAY0436,Sprinkler,Q-12,1037206.45017729,190887.059220567
Activated,Q,Q220E,Q220E,Playground One Forty,Playground One Forty,Play Equipment,Q220E-SPRAY0437,Sprinkler,Q-12,1039378.9320528,185311.343337893
Activated,Q,Q221,Q221,Farm Playground,Farm Playground,Play Equipment,Q221-SPRAY0438,Sprinkler,Q-08,1045953.95564813,207404.748954147
Activated,Q,Q266,Q266,Westbourne Playground,Westbourne Playground,Play Equipment,Q266-SPRAY0439,Sprinkler,Q-14,1049664.84061481,160874.17042756
Activated,Q,Q290,Q290,"""Uncle"" Vito F. Maranzano Glendale Playground","""Uncle"" Vito F. Maranzano Glendale Playground",Play Equipment,Q290-SPRAY0440,Sprinkler,Q-05,1017089.58358697,196049.773960724
Activated,Q,Q291,Q291,Starr Playground,Starr Playground,Play Equipment,Q291-SPRAY0441,Sprinkler,Q-05,1007037.36189354,197881.206649556
Activated,Q,Q293,Q293,Saul Weprin Playground,Saul Weprin Playground,Play Equipment,Q293-SPRAY0442,Sprinkler,Q-11,1046269.84051504,211779.858970314
Activated,Q,Q294,Q294,Utopia Playground,Utopia Playground,Play Equipment,Q294-SPRAY0443,Sprinkler,Q-08,1041682.61806222,205567.591539233
Activated,Q,Q298,Q298,Paul Raimonda Playground,Paul Raimonda Playground,Play Equipment,Q298-SPRAY0444,Sprinkler,Q-01,1012655.17611722,220846.211244389
Activated,Q,Q300,Q300-02,Playground 146,Kissena Corridor Park,Play Equipment,Q300-02-SPRAY0445,Sprinkler,Q-07,1033760.07386797,211182.646910145
Activated,Q,Q300,Q300-03,Silent Springs Playground,Kissena Corridor Park,Play Equipment,Q300-03-SPRAY0446,Sprinkler,Q-07,1033293.8812308,212532.38469623
Activated,Q,Q300,Q300-04,Captain Mario Fajardo Park,Kissena Corridor Park,Play Equipment,Q300-04-SPRAY0447,Sprinkler,Q-07,1035614.37691788,210204.960545316
Activated,Q,Q300A,Q300A-01,Underhill Playground,Kissena Corridor Park,Play Equipment,Q300A-01-SPRAY0448,Sprinkler,Q-11,1042965.21884347,210733.629763558
Activated,Q,Q302,Q302,Evergreen Park,Evergreen Park,Play Equipment,Q302-SPRAY0449,Sprinkler,Q-05,1012958.26606221,193298.69744189
Activated,Q,Q303,Q303,Travers Park,Travers Park,Play Equipment,Q303-SPRAY0450,Sprinkler,Q-03,1014907.51216371,213990.084536731
Activated,Q,Q304,Q304,Ehrenreich-Austin Playground,Ehrenreich-Austin Playground,Play Equipment,Q304-SPRAY0451,Sprinkler,Q-06,1029476.15953555,200001.006215721
Activated,Q,Q305,Q305,Mafera Park,Mafera Park,Play Equipment,Q305-SPRAY0452,Sprinkler,Q-05,1014405.76907272,196952.054636478
Activated,Q,Q306,Q306,The Painter's Playground,The Painter's Playground,Play Equipment,Q306-SPRAY0453,Sprinkler,Q-06,1023047.9115653,201828.018309727
Activated,Q,Q307,Q307,Delphin H. Greene Playground,Delphin H. Greene Playground,Play Equipment,Q307-SPRAY0454,Sprinkler,Q-13,1059429.14687354,188964.89803864
Activated,Q,Q308,Q308,Bowne Playground,Bowne Playground,Play Equipment,Q308-SPRAY0455,Sprinkler,Q-07,1032768.96266122,215552.567960307
Activated,Q,Q313,Q313,Arverne Playground,Arverne Playground,Play Equipment,Q313-SPRAY0456,Sprinkler,Q-14,1043910.24516864,155343.55681689
Activated,Q,Q317,Q317,Tall Oak Playground,Tall Oak Playground,Play Equipment,Q317-SPRAY0457,Sprinkler,Q-11,1051251.94898913,211191.10555464
Activated,Q,Q318,Q318,Playground Eighty LXXX,Playground Eighty LXXX,Play Equipment,Q318-SPRAY0458,Sprinkler,Q-13,1064731.03456372,210705.279754638
Activated,Q,Q319,Q319,Annadale Playground,Annadale Playground,Play Equipment,Q319-SPRAY0459,Sprinkler,Q-06,1025321.3715853,205683.572934553
Activated,Q,Q320,Q320,Vleigh Playground,Vleigh Playground,Play Equipment,Q320-SPRAY0460,Sprinkler,Q-08,1035106.7437468,205223.627332136
Activated,Q,Q322,Q322,Bellaire Playground,Bellaire Playground,Play Equipment,Q322-SPRAY0461,Sprinkler,Q-13,1051314.94131721,202239.53323473
Under Construction,Q,Q326,Q326,Bland Playground,Bland Playground,Play Equipment,Q326-SPRAY0462,Sprinkler,Q-07,1031032.81062172,215580.436014816
Activated,Q,Q327,Q327,Castlewood Playground,Castlewood Playground,Play Equipment,Q327-SPRAY0463,Sprinkler,Q-13,1061341.14337763,212463.739164233
Activated,Q,Q329,Q329,Pomonok Playground,Pomonok Playground,Play Equipment,Q329-SPRAY0464,Sprinkler,Q-08,1035815.39357621,207511.959697723
Activated,Q,Q330,Q330,Locust Manor Playground,Locust Manor Playground,Play Equipment,Q330-SPRAY0465,Sprinkler,Q-12,1051824.16569246,189291.889838725
Activated,Q,Q332,Q332,Woodtree Playground,Woodtree Playground,Play Equipment,Q332-SPRAY0466,Sprinkler,Q-01,1011289.57189305,222565.368567228
Activated,Q,Q333,Q333,Ravenswood Playground,Ravenswood Playground,Play Equipment,Q333-SPRAY0467,Sprinkler,Q-01,1002161.41593679,217121.980503886
Activated,Q,Q334,Q334,Playground Twenty One,Playground Twenty One,Play Equipment,Q334-SPRAY0468,Sprinkler,Q-07,1040052.24402639,222890.442064061
Activated,Q,Q335,Q335,Russell Sage Playground,Russell Sage Playground,Play Equipment,Q335-SPRAY0469,Sprinkler,Q-06,1025418.30872738,203002.185580804
Under Construction,Q,Q336,Q336,Judge Moses Weinstein Playground,Judge Moses Weinstein Playground,Play Equipment,Q336-SPRAY0470,Sprinkler,Q-08,1033978.41037355,201127.055800899
Activated,Q,Q337,Q337,Maurice A FitzGerald Playground,Maurice A FitzGerald Playground,Play Equipment,Q337-SPRAY0471,Sprinkler,Q-09,1028689.73000605,190818.82674548
Activated,Q,Q338,Q338,Admiral (Sy Seplowe) Playground,Admiral Playground,Play Equipment,Q338-SPRAY0472,Sprinkler,Q-11,1056863.00830505,220287.78552398
Activated,Q,Q339,Q339,Cambria Playground,Cambria Playground,Play Equipment,Q339-SPRAY0473,Sprinkler,Q-13,1055542.21468681,190454.179836973
Activated,Q,Q340,Q340,Torsney Playground,Torsney Playground,Play Equipment,Q340-SPRAY0474,Sprinkler,Q-02,1005970.2744608,211566.561496645
Activated,Q,Q342,Q342,Electric Playground,Electric Playground,Play Equipment,Q342-SPRAY0475,Sprinkler,Q-08,1038186.38489721,207468.261294305
Activated,Q,Q343,Q343,Whitestone Playground,Whitestone Playground,Play Equipment,Q343-SPRAY0476,Sprinkler,Q-07,1037299.29546405,227881.103670641
Activated,Q,Q344,Q344,Emerald Playground,Emerald Playground,Play Equipment,Q344-SPRAY0477,Sprinkler,Q-08,1038026.64899621,205664.49849765
Activated,Q,Q346,Q346,Challenge Playground,Challenge Playground,Play Equipment,Q346-SPRAY0478,Sprinkler,Q-11,1059616.31710289,215051.871127054
Activated,Q,Q347,Q347,Colden Playground,Colden Playground,Play Equipment,Q347-SPRAY0479,Sprinkler,Q-07,1032103.26550179,219943.856093719
Activated,Q,Q348,Q348,Willow Lake Playground,Willow Lake Playground,Play Equipment,Q348-SPRAY0480,Sprinkler,Q-06,1029394.86704722,202627.195517137
Activated,Q,Q349,Q349,Telephone Playground,Telephone Playground,Play Equipment,Q349-SPRAY0481,Sprinkler,Q-11,1051703.4388998,208412.350941553
Activated,Q,Q351,Q351,Peters Field,Peters Field,Play Equipment,Q351-SPRAY0482,Sprinkler,Q-12,1046684.98272939,196714.453733727
Activated,Q,Q352,Q352,Hillside Playground,Hillside Playground,Play Equipment,Q352-SPRAY0483,Sprinkler,Q-13,1063729.61038547,209372.984847053
Activated,Q,Q354,Q354,Playground Seventy Five,Playground Seventy Five,Play Equipment,Q354-SPRAY0484,Sprinkler,Q-08,1037411.10265514,203977.148853972
Activated,Q,Q356,Q356,Alley Park,Alley Park,Play Equipment,Q356-SPRAY0485,Sprinkler,Q-07A,1054930.34156672,211673.995008811
Activated,Q,Q357B,Q357B,Real Good Playground,Real Good Playground,Play Equipment,Q357B-SPRAY0486,Sprinkler,Q-06,1023784.25326846,207291.789534389
Activated,Q,Q357G,Q357G,Turtle Playground,Turtle Playground,Play Equipment,Q357G-SPRAY0487,Sprinkler,Q-07,1032069.45618622,209704.955967888
Activated,Q,Q358,Q358,Detective William T. Gunn Playground,Detective William T. Gunn Playground,Play Equipment,Q358-SPRAY0488,Sprinkler,Q-13,1058586.8050543,206021.576195552
Activated,Q,Q359,Q359,Haggerty Park,Haggerty Park,Play Equipment,Q359-SPRAY0489,Sprinkler,Q-12,1051280.57524421,199217.440853729
Activated,Q,Q360J,Q360J,Crowley Playground,Crowley Playground,Play Equipment,Q360J-SPRAY0490,Sprinkler,Q-04,1017615.96311163,205098.139066055
Activated,Q,Q360M,Q360M,Frontera Park,Frontera Park,Play Equipment,Q360M-SPRAY0491,Sprinkler,Q-05,1013250.92722231,203312.896573558
Activated,Q,Q360N,Q360N,Hoffman Park,Hoffman Park,Play Equipment,Q360N-SPRAY0492,Sprinkler,Q-04,1019845.20274764,206302.866315394
Under Construction,Q,Q361,Q361,Moore Homestead Playground,Moore Homestead Playground,Play Equipment,Q361-SPRAY0493,Sprinkler,Q-04,1016838.4220158,209680.819533228
Activated,Q,Q362,Q362,Playground Ninety,Playground Ninety,Play Equipment,Q362-SPRAY0494,Sprinkler,Q-03,1017887.69747629,215210.759916886
Activated,Q,Q363,Q363,Northern Playground,Northern Playground,Play Equipment,Q363-SPRAY0495,Sprinkler,Q-03,1019002.67490513,214753.062341481
Activated,Q,Q364,Q364,Marie Curie Playground,Marie Curie Playground,Play Equipment,Q364-SPRAY0496,Sprinkler,Q-11,1047477.26165664,215131.150167971
Activated,Q,Q366,Q366,Louis C. Moser Playground,Louis C. Moser Playground,Play Equipment,Q366-SPRAY0497,Sprinkler,Q-03,1014103.04822146,217315.506363555
Activated,Q,Q367,Q367,Hammel Playground,Hammel Playground,Play Equipment,Q367-SPRAY0498,Sprinkler,Q-14,1037195.48858505,153632.190817058
Activated,Q,Q369,Q369,Louis Pasteur Park,Louis Pasteur Park,Play Equipment,Q369-SPRAY0499,Sprinkler,Q-11,1057562.71195814,217018.762534469
Activated,Q,Q370,Q370,Freedom Square Playground,Freedom Square Playground,Play Equipment,Q370-SPRAY0500,Sprinkler,Q-08,1034064.82161805,202819.639357984
Activated,Q,Q373,Q373,East Elmhurst Playground,East Elmhurst Playground,Play Equipment,Q373-SPRAY0501,Sprinkler,Q-03,1020037.30046054,218224.355267643
Activated,Q,Q375,Q375,Willets Point Playground,Willets Point Playground,Play Equipment,Q375-SPRAY0502,Sprinkler,Q-07,1040632.71596255,224897.281226232
Activated,Q,Q377,Q377,Playground Sixty Two LXII,Playground Sixty Two LXII,Play Equipment,Q377-SPRAY0503,Sprinkler,Q-06,1024996.87649938,207514.381280809
Activated,Q,Q378,Q378,Ampere Playground,Ampere Playground,Play Equipment,Q378-SPRAY0504,Sprinkler,Q-09,1023926.40882405,187722.314565807
Under Construction,Q,Q379,Q379,Briarwood Playground,Briarwood Playground,Play Equipment,Q379-SPRAY0505,Sprinkler,Q-08,1036644.26265338,198124.617251977
Activated,Q,Q381,Q381,Francis Lewis Playground,Francis Lewis Playground,Play Equipment,Q381-SPRAY0506,Sprinkler,Q-11,1044079.54010564,216398.135822981
Activated,Q,Q385,Q385,Ditmars Playground,Ditmars Playground,Play Equipment,Q385-SPRAY0507,Sprinkler,Q-01,1009966.12112788,220407.497554898
Activated,Q,Q386,Q386,Centreville Playground,Centreville Playground,Play Equipment,Q386-SPRAY0508,Sprinkler,Q-10,1028900.2797818,183546.803231805
Activated,Q,Q389,Q389,Bayside Playground,Bayside Playground,Play Equipment,Q389-SPRAY0509,Sprinkler,Q-14,1032818.04031896,152405.459346637
Activated,Q,Q390,Q390,Clintonville Playground,Clintonville Playground,Play Equipment,Q390-SPRAY0510,Sprinkler,Q-07,1037559.06594188,224682.974240139
Activated,Q,Q391,Q391,Joseph Austin Playground,Joseph Austin Playground,Play Equipment,Q391-SPRAY0511,Sprinkler,Q-08,1039387.27619622,200129.927545815
Activated,Q,Q396,Q396,Montbellier Park,Montbellier Park,Play Equipment,Q396-SPRAY0512,Sprinkler,Q-12,1051771.9505738,185188.926587983
Activated,Q,Q397,Q397,Auburndale Playground,Auburndale Playground,Play Equipment,Q397-SPRAY0513,Sprinkler,Q-07,1041220.60291013,218366.692253306
Activated,Q,Q398,Q398,Rosemary's Playground,Rosemary's Playground,Play Equipment,Q398-SPRAY0514,Sprinkler,Q-05,1010880.86601755,196043.160128816
Activated,Q,Q399,Q399,Bay Terrace Playground,Bay Terrace Playground,Play Equipment,Q399-SPRAY0515,Sprinkler,Q-07A,1045842.92568646,224396.519760563
Activated,Q,Q400,Q400,Oakland Gardens,Oakland Gardens,Play Equipment,Q400-SPRAY0516,Sprinkler,Q-07A,1050839.88124372,213926.690962731
Activated,Q,Q401,Q401,Lost Battalion Hall Recreation Center,Lost Battalion Hall Recreation Center,Play Equipment,Q401-SPRAY0517,Sprinkler,Q-06,1021636.45835147,206072.644006803
Activated,Q,Q402,Q402,Latimer Playground,Latimer Playground,Play Equipment,Q402-SPRAY0518,Sprinkler,Q-12,1043522.38505196,193110.116126149
Activated,Q,Q403,Q403,Beach Channel Playground,Beach Channel Playground,Play Equipment,Q403-SPRAY0519,Sprinkler,Q-14,1038174.48629897,153894.311355814
Activated,Q,Q408,Q408,Harold Schneiderman Playground,Harold Schneiderman Playground,Play Equipment,Q408-SPRAY0520,Sprinkler,Q-10,1025745.49803364,181590.216593816
Activated,Q,Q413,Q413-02,Rochdale Park Playground,Rochdale Park,Play Equipment,Q413-02-SPRAY0521,Sprinkler,Q-12,1046599.09641821,184991.073637232
Under Construction,Q,Q415,Q415,Louis Armstrong Playground,Louis Armstrong Playground,Play Equipment,Q415-SPRAY0522,Sprinkler,Q-03,1024297.69088989,214330.574341312
Activated,Q,Q419,Q419,Hart Playground,Hart Playground,Play Equipment,Q419-SPRAY0523,Sprinkler,Q-07,1034393.3081658,221328.220122888
Activated,Q,Q421,Q421,Walter Ward Playground,Walter Ward Playground,Play Equipment,Q421-SPRAY0524,Sprinkler,Q-10,1027619.39159555,178831.891073733
Activated,Q,Q422,Q422,Seaside Playground,Seaside Playground,Play Equipment,Q422-SPRAY0525,Sprinkler,Q-14,1031238.71506555,150945.639103561
Activated,Q,Q423,Q423,Reiff Playground,Reiff Playground,Play Equipment,Q423-SPRAY0526,Sprinkler,Q-05,1011491.28507229,201090.821621388
Activated,Q,Q426,Q426,North Rochdale Playground,North Rochdale Playground,Play Equipment,Q426-SPRAY0527,Sprinkler,Q-12,1046646.7246038,187087.19411689
Activated,Q,Q427,Q427,South Rochdale Playground,South Rochdale Playground,Play Equipment,Q427-SPRAY0528,Sprinkler,Q-12,1048308.74818263,184867.292716816
Activated,Q,Q428,Q428,Horace Harding Playground,Horace Harding Playground,Play Equipment,Q428-SPRAY0529,Sprinkler,Q-06,1022898.20746839,206483.180259227
Activated,Q,Q429,Q429,Spirit Playground,Spirit Playground,Play Equipment,Q429-SPRAY0530,Sprinkler,Q-01,1000460.22642581,216614.630796805
Activated,Q,Q430,Q430,Sunrise Playground,Sunrise Playground,Play Equipment,Q430-SPRAY0531,Sprinkler,Q-13,1057407.56069363,177166.974127978
Under Construction,Q,Q443,Q443,Almeda Playground,Almeda Playground,Play Equipment,Q443-SPRAY0532,Sprinkler,Q-14,1041270.97157581,155587.226933226
Activated,Q,Q444,Q444,Sean's Place,Sean's Place,Play Equipment,Q444-SPRAY0533,Sprinkler,Q-01,1006875.58137722,216457.01004906
Activated,Q,Q448,Q448-99,Roy Wilkins Park Playground,Roy Wilkins Recreation Center,Play Equipment,Q448-99-SPRAY0534,Sprinkler,Q-12,1048089.53044521,189231.530051305
Activated,Q,Q450,Q450,Corona Golf Playground,Corona Golf Playground,Play Equipment,Q450-SPRAY0535,Sprinkler,Q-04,1024617.30048689,211704.252166137
Activated,Q,Q456,Q456,Gene Gray Playground,Gene Gray Playground,Play Equipment,Q456-SPRAY0536,Sprinkler,Q-14,1034453.78803172,160200.252155974
Activated,R,R005,R005-01,Clove Lakes Park Plgd,Clove Lakes Park,Play Equipment,R005-01-SPRAY0537,Sprinkler,R-01,954808.574290976,164643.374831393
Activated,R,R012,R012,White Park,White Park,Play Equipment,R012-SPRAY0538,Sprinkler,R-01,966719.241086393,160640.422535479
Activated,R,R025,R025,Mahoney Playground,Mahoney Playground,Play Equipment,R025-SPRAY0541,Sprinkler,R-01,960356.38406147,173772.300143063
Activated,R,R026,R026,Gerard P. Dugan Playground,Gerard P. Dugan Playground,Play Equipment,R026-SPRAY0542,Sprinkler,R-03,953450.461849719,143840.353773474
Activated,R,R031,R031-11,Wolfe's Pond Park,Wolfe's Pond Park,Play Equipment,R031-11-SPRAY0543,Sprinkler,R-03,932195.882967889,128182.908054307
Activated,R,R033,R033,Levy Playground,Levy Playground,Play Equipment,R033-SPRAY0545,Sprinkler,R-01,948462.391445308,170254.696942061
Activated,R,R034,R034,Austin J. McDonald Playground,Austin J. McDonald Playground,Play Equipment,R034-SPRAY0546,Sprinkler,R-01,952258.47866939,168680.510785982
Activated,R,R035,R035,De Matti Park,De Matti Park,Play Equipment,R035-SPRAY0547,Sprinkler,R-01,963653.606469631,163175.949288561
Activated,R,R038,R038,Midland Playground,Midland Playground,Play Equipment,R038-SPRAY0548,Sprinkler,R-02B,956800.846553132,148743.590029969
Activated,R,R045,R045-01,Schmul Park,Schmul Park,Play Equipment,R045-01-SPRAY0549,Sprinkler,R-02,932310.713446885,154066.958976387
Activated,R,R046,R046-05,Playland,Franklin D. Roosevelt Boardwalk and Beach,Play Equipment,R046-05-SPRAY0550,Sprinkler,R-02B,965531.538409307,153817.454882219
Activated,R,R046,R046-07,Midland Beach Playground,Franklin D. Roosevelt Boardwalk and Beach,Play Equipment,R046-07-SPRAY0551,Sprinkler,R-02B,960799.725038304,148527.306013733
Under Construction,R,R061,R061,Stapleton Playground,Stapleton Playground,Play Equipment,R061-SPRAY0552,Sprinkler,R-01,962138.926428139,166352.283815145
Activated,R,R063,R063,Old Town Playground,Old Town Playground,Play Equipment,R063-SPRAY0553,Sprinkler,R-02,961654.731530383,156205.269660398
Activated,R,R064,R064,Christopher J. Igneri Playground,Christopher J. Igneri Playground,Play Equipment,R064-SPRAY0554,Sprinkler,R-02,951047.89250788,161061.286195054
Activated,R,R067,R067,Gen. Douglas MacArthur Park,Gen. Douglas MacArthur Park,Play Equipment,R067-SPRAY0555,Sprinkler,R-02,956411.554352715,152999.426662638
Activated,R,R069,R069,Terrace Playground,Terrace Playground,Play Equipment,R069-SPRAY0556,Sprinkler,R-01,956876.699419811,162868.9354669
Activated,R,R071,R071,Great Kills Veterans Playground,Great Kills Veterans Playground,Play Equipment,R071-SPRAY0557,Sprinkler,R-03,942062.856672227,138611.170006141
Activated,R,R076,R076,Markham Playground,Markham Playground,Play Equipment,R076-SPRAY0558,Sprinkler,R-01,943750.690238803,166460.445672303
Under Construction,R,R085,R085,E.M.T. Christopher J. Prescott Playground,E.M.T. Christopher J. Prescott Playground,Play Equipment,R085-SPRAY0559,Sprinkler,R-03,932513.142503976,129730.19498597
Activated,R,R087,R087,Dongan Playground,Dongan Playground,Play Equipment,R087-SPRAY0560,Sprinkler,R-02,959409.509970978,151576.563366636
Activated,R,R111,R111,Lt. Lia Playground,Lt. Lia Playground,Play Equipment,R111-SPRAY0562,Sprinkler,R-01,962092.347124964,173755.897288724
Activated,R,R114,R114,Jennifer's Playground,Jennifer's Playground,Play Equipment,R114-SPRAY0563,Sprinkler,R-01,938963.051848218,165220.714555978
Activated,R,R123,R123,Skyline Playground,Skyline Playground,Play Equipment,R123-SPRAY0564,Sprinkler,R-01,959404.409915551,172239.601108729
Under Construction,R,R125,R125,Lopez Playground,Lopez Playground,Play Equipment,R125-SPRAY0565,Sprinkler,R-01,960634.794265806,162068.935098394
Activated,X,X001A,X001A-01,Morton Plgd,Aqueduct Walk,Play Equipment,X001A-01-SPRAY0566,Sprinkler,X-05,1007954.12055872,249425.097327977
Activated,X,X002,X002-04,Ben Abrams Playground,Bronx Park,Play Equipment,X002-04-SPRAY0567,Sprinkler,X-06,1020178.60857689,250609.606113806
Activated,X,X002,X002-05,Brady Plgd,Bronx Park,Play Equipment,X002-05-SPRAY0568,Sprinkler,X-06,1020555.42803321,249490.325215891
Activated,X,X002,X002-05A,Waring Plgd,Bronx Park,Play Equipment,X002-05A-SPRAY0569,Sprinkler,X-06,1019807.71594597,252803.32580772
Activated,X,X002,X002-07,River Park,Bronx Park,Play Equipment,X002-07-SPRAY0570,Sprinkler,X-06,1018184.86879797,246455.41691564
Under Construction,X,X002,X002-08,French Charley Plgd,Bronx Park,Play Equipment,X002-08-SPRAY0571,Sprinkler,X-06,1018472.85444247,256239.513161063
Activated,X,X002,X002-14,Rosewood Playground,Bronx Park,Play Equipment,X002-14-SPRAY0572,Sprinkler,X-06,1019915.16159722,257330.183223813
Broken,X,X004,X004-01,227th Street Playground,Bronx River Parkway,Play Equipment,X004-01-SPRAY0573,Sprinkler,X-09,1021796.45278213,263854.347668886
Activated,X,X004,X004-02,Olinville Playground,Bronx River Parkway,Play Equipment,X004-02-SPRAY0574,Sprinkler,X-09,1021014.74338755,261371.957620561
Activated,X,X004,X004-03,Parque De Los Ninos,Bronx River Parkway,Play Equipment,X004-03-SPRAY0575,Sprinkler,X-09,1019241.62685506,240973.742839649
Activated,X,X010,X010-07,Carter Plgd (7),Crotona Park,Play Equipment,X010-07-SPRAY0576,Sprinkler,X-03,1013487.15837714,244106.725090727
Under Construction,X,X010,X010-10,Playground Of The Stars,Crotona Park,Play Equipment,X010-10-SPRAY0577,Sprinkler,X-03,1011889.09792497,243838.891636893
Activated,X,X010,X010-12,Bathgate Playground,Crotona Park,Play Equipment,X010-12-SPRAY0578,Sprinkler,X-03,1012619.50263214,245649.680010065
Activated,X,X010A,X010A-01,Tremont Plgd (1),Tremont Park,Play Equipment,X010A-01-SPRAY0579,Sprinkler,X-06,1013624.88546389,247558.951453983
Activated,X,X010A,X010A-02,Tremont Plgd (2),Tremont Park,Play Equipment,X010A-02-SPRAY0580,Sprinkler,X-06,1013402.20152606,246988.071362137
Activated,X,X013,X013-01,Devoe Park,Devoe Park,Play Equipment,X013-01-SPRAY0581,Sprinkler,X-05,1010602.60902813,254014.743660479
Activated,X,X014,X014,Horseshoe Playground,Horseshoe Playground,Play Equipment,X014-SPRAY0582,Sprinkler,X-02,1012565.34394779,239543.321159809
Under Construction,X,X017,X017-01,Richman (Echo) Park Lower,Richman (Echo) Park,Play Equipment,X017-01-SPRAY0583,Sprinkler,X-05,1011560.35251946,248675.011557817
Under Construction,X,X017,X017-02,Richman (Echo) Park Upper,Richman (Echo) Park,Play Equipment,X017-02-SPRAY0584,Sprinkler,X-05,1011365.50743672,248822.462050303
Activated,X,X020,X020,Fort Independence Playground,Fort Independence Playground,Play Equipment,X020-SPRAY0585,Sprinkler,X-08,1013310.71384814,260592.044154137
Activated,X,X029,X029,Lyons Square Park,Lyons Square Playground,Play Equipment,X029-SPRAY0586,Sprinkler,X-02,1015228.62963172,239056.074430897
Under Construction,X,X033,X033-01,Kossuth Plgd,Mosholu Parkway,Play Equipment,X033-01-SPRAY0587,Sprinkler,X-07,1016705.62864622,259109.738719806
Activated,X,X034,X034,Mullaly Park,Mullaly Park,Play Equipment,X034-SPRAY0588,Sprinkler,X-04,1005224.02168822,242688.55174598
Activated,X,X038,X038-01,Strong Street Plgd,Washington's Walk,Play Equipment,X038-01-SPRAY0589,Sprinkler,X-08,1012448.74050647,256755.509504392
Activated,X,X038,X038-02,Fort #4 Playground,Washington's Walk,Play Equipment,X038-02-SPRAY0590,Sprinkler,X-08,1011669.46713063,257957.010054141
Activated,X,X039,X039-01,Playground For All Children,Pelham Bay Park,Play Equipment,X039-01-SPRAY0591,Sprinkler,X-15,1032489.85003046,248360.936726644
Activated,X,X039,X039-02,Sweetgum Plgd,Pelham Bay Park,Play Equipment,X039-02-SPRAY0592,Sprinkler,X-15,1032335.11346329,249448.647477731
Activated,X,X039,X039-06K,Pelican Bay Plgd,Pelham Bay Park,Play Equipment,X039-06K-SPRAY0593,Sprinkler,X-15,1041381.63834922,255592.229022562
Activated,X,X039,X039-ZN16,Orchard Beach North,Pelham Bay Park,Play Equipment,X039-ZN16-SPRAY0594,Sprinkler,X-15,1041624.98924046,255651.166240647
Activated,X,X044,X044-01,St James Park Playground,St. James Park,Play Equipment,X044-01-SPRAY0595,Sprinkler,X-07,1012409.65659514,254787.639424398
Activated,X,X046,X046-01,High Rock Plgd,Seton Falls Park,Play Equipment,X046-01-SPRAY0596,Sprinkler,X-12,1028262.22364321,262960.777605637
Activated,X,X080,X080-01,Paul's Playground,Henry Hudson Park,Play Equipment,X080-01-SPRAY0597,Sprinkler,X-08,1006397.45044371,260147.068666145
Activated,X,X085,X085,Slattery Playground,Slattery Playground,Play Equipment,X085-SPRAY0598,Sprinkler,X-05,1012333.00222088,251633.480378389
Activated,X,X087,X087,Zimmerman Playground,Zimmerman Playground,Play Equipment,X087-SPRAY0599,Sprinkler,X-11,1020555.41490988,254870.732434064
Activated,X,X092,X092-05,Van Cortlandt Classic Plgd,Van Cortlandt Park,Play Equipment,X092-05-SPRAY0600,Sprinkler,X-13,1014453.16005405,261823.916362315
Activated,X,X092,X092-06,Woodlawn Plgd,Van Cortlandt Park,Play Equipment,X092-06-SPRAY0601,Sprinkler,X-13,1019535.67285488,267218.824207648
Activated,X,X092,X092-09,Southwest Plgd,Van Cortlandt Park,Play Equipment,X092-09-SPRAY0602,Sprinkler,X-13,1012447.3855223,262328.860234305
Activated,X,X093,X093,Van Nest Park,Van Nest Park,Play Equipment,X093-SPRAY0603,Sprinkler,X-11,1021386.91029413,246559.263820812
Activated,X,X102,X102,Ciccarone Park,Ciccarone Park,Play Equipment,X102-SPRAY0604,Sprinkler,X-06,1015591.19977271,251149.36651723
Activated,X,X103,X103,People's Park,People's Park,Play Equipment,X103-SPRAY0605,Sprinkler,X-01,1007225.05213497,234205.406966894
Activated,X,X104,X104,Williamsbridge Oval,Williamsbridge Oval,Play Equipment,X104-SPRAY0606,Sprinkler,X-07,1018157.99057088,259044.868442729
Activated,X,X104,X104,Williamsbridge Oval,Williamsbridge Oval,Play Equipment,X104-SPRAY0607,Sprinkler,X-07,1018157.99057088,259044.868442729
Activated,X,X104,X104-01,Plgd w/ Mini Pool & Courts,Williamsbridge Oval,Play Equipment,X104-01-SPRAY0608,Sprinkler,X-07,1018247.99334363,258854.336015388
Activated,X,X104,X104-02,Williamsbridge Oval,Williamsbridge Oval,Play Equipment,X104-02-SPRAY0609,Sprinkler,X-07,1017836.98465122,258932.79484798
Activated,X,X104,X104-03,Williamsbridge Oval,Williamsbridge Oval,Play Equipment,X104-03-SPRAY0610,Sprinkler,X-07,1018242.3365308,259408.068831816
Activated,X,X108,X108,Belmont Playground,Belmont Playground,Play Equipment,X108-SPRAY0611,Sprinkler,X-06,1015320.17308379,249080.177414149
Activated,X,X111,X111,Cedar Playground,Cedar Playground,Play Equipment,X111-SPRAY0612,Sprinkler,X-05,1007103.25710296,250832.390117064
Activated,X,X113,X113,Hunts Point Playground,Hunts Point Playground,Play Equipment,X113-SPRAY0614,Sprinkler,X-02,1015814.04840838,235909.558086141
Activated,X,X114,X114,Goble Playground,Goble Playground,Play Equipment,X114-SPRAY0615,Sprinkler,X-04,1007202.03610488,246695.370503976
Broken,X,X115,X115,Mott Playground,Mott Playground,Play Equipment,X115-SPRAY0616,Sprinkler,X-04,1007846.30351713,242146.437672719
Activated,X,X116,X116,Rev J Polite Playground,Rev J Polite Playground,Play Equipment,X116-SPRAY0617,Sprinkler,X-02,1012746.94594679,240622.358371809
Activated,X,X118,X118-01,Soundview Park,Soundview Park,Play Equipment,X118-01-SPRAY0618,Sprinkler,X-09,1019210.63019788,237893.110549479
Activated,X,X118,X118-02,Soundview Park,Soundview Park,Play Equipment,X118-02-SPRAY0619,Sprinkler,X-09,1020084.67208497,237398.853007808
Activated,X,X121,X121,Bufano Park,Bufano Park,Play Equipment,X121-SPRAY0620,Sprinkler,X-10,1030977.91506221,244699.330860897
Activated,X,X122,X122,Colucci Playground,Colucci Playground,Play Equipment,X122-SPRAY0621,Sprinkler,X-10,1030011.96751905,250010.953111648
Activated,X,X123,X123,Noble Playground,Noble Playground,Play Equipment,X123-SPRAY0622,Sprinkler,X-09,1019599.15730796,244357.591386899
Activated,X,X124,X124,Watson Gleason Playground,Watson Gleason Playground,Play Equipment,X124-SPRAY0623,Sprinkler,X-09,1020513.76210606,241128.046008721
Activated,X,X131,X131,Lozada Playground,Lozada Playground,Play Equipment,X131-SPRAY0624,Sprinkler,X-01,1005023.95319071,233644.811303302
Activated,X,X141,X141,Rienzi Playground,Rienzi Playground,Play Equipment,X141-SPRAY0625,Sprinkler,X-12,1023356.15766796,262692.77453272
Activated,X,X146,X146,Flynn Playground,Flynn Playground,Play Equipment,X146-SPRAY0626,Sprinkler,X-01,1008625.00799646,238418.119998142
Activated,X,X147B,X147B,Daniel Boone Playground,Daniel Boone Playground,Play Equipment,X147B-SPRAY0627,Sprinkler,X-03,1015801.05565221,241544.886382386
Activated,X,X148C5,X148C5,Jennie Jerome Playground,Jennie Jerome Playground,Play Equipment,X148C5-SPRAY0628,Sprinkler,X-05,1008189.54528471,247351.681855395
Activated,X,X148C7,X148C7,Jerome Playground South,Jerome Playground South,Play Equipment,X148C7-SPRAY0629,Sprinkler,X-04,1008094.06876963,247085.704368978
Activated,X,X148L,X148L,Virginia Playground,Virginia Playground,Play Equipment,X148L-SPRAY0630,Sprinkler,X-09,1022387.53821413,243247.980745226
Activated,X,X148M1,X148M1,Havemeyer Playground,Havemeyer Playground,Play Equipment,X148M1-SPRAY0631,Sprinkler,X-09,1026353.48795938,241669.67156589
Activated,X,X150J,X150J,Bailey Playground,Bailey Playground,Play Equipment,X150J-SPRAY0632,Sprinkler,X-08,1011894.96339879,260652.772379145
Activated,X,X151,X151,P.O. Serrano Playground,P.O. Serrano Playground,Play Equipment,X151-SPRAY0633,Sprinkler,X-09,1025484.04678489,239299.191070646
Activated,X,X152,X152,Vinmont Veteran Park,Vinmont Veteran Park,Play Equipment,X152-SPRAY0634,Sprinkler,X-08,1010528.5803048,268077.786072388
Activated,X,X153,X153-01,Merriam Plgd (Upper),Merriam Playground,Play Equipment,X153-01-SPRAY0635,Sprinkler,X-04,1004476.97396972,245511.448003053
Activated,X,X153,X153-02,Merriam Plgd (Lower),Merriam Playground,Play Equipment,X153-02-SPRAY0636,Sprinkler,X-04,1004621.72433638,244920.025629475
Activated,X,X154,X154,Melrose Playground,Melrose Playground,Play Equipment,X154-SPRAY0637,Sprinkler,X-01,1006828.38691779,238208.695548221
Activated,X,X156,X156,Eastchester Playground,Eastchester Playground,Play Equipment,X156-SPRAY0638,Sprinkler,X-11,1024959.42808346,256200.013568148
Activated,X,X157,X157,Mazzei Playground,Mazzei Playground,Play Equipment,X157-SPRAY0639,Sprinkler,X-11,1023398.2789748,253556.275089234
Activated,X,X158,X158,Sedgwick Playground,Sedgwick Playground,Play Equipment,X158-SPRAY0640,Sprinkler,X-05,1005446.57176806,247398.594163149
Activated,X,X159,X159,Playground 174,Playground 174,Play Equipment,X159-SPRAY0641,Sprinkler,X-09,1018075.22400413,243276.582394063
Broken,X,X161,X161,Gun Hill Playground,Gun Hill Playground,Play Equipment,X161-SPRAY0642,Sprinkler,X-12,1021444.26418206,257981.4637454
Activated,X,X162,X162,Parkside Playground,Parkside Playground,Play Equipment,X162-SPRAY0643,Sprinkler,X-11,1020750.59234105,255680.793477982
Activated,X,X163,X163,Loreto Playground,Loreto Playground,Play Equipment,X163-SPRAY0644,Sprinkler,X-11,1025162.7852883,248646.723228558
Activated,X,X164,X164,Dawson Playground,Dawson Playground,Play Equipment,X164-SPRAY0645,Sprinkler,X-02,1012357.39390438,237863.846828475
Activated,X,X165,X165,Edenwald Playground,Edenwald Playground,Play Equipment,X165-SPRAY0646,Sprinkler,X-12,1027108.33520297,261512.910422638
Activated,X,X166,X166,Behagen Playground,Behagen Playground,Play Equipment,X166-SPRAY0647,Sprinkler,X-03,1011536.27809254,239972.51223056
Activated,X,X168,X168,Nelson Playground,Nelson Playground,Play Equipment,X168-SPRAY0648,Sprinkler,X-04,1004494.21179613,243425.48892039
Activated,X,X169,X169,Agnes Haywood Playground,Agnes Haywood Playground,Play Equipment,X169-SPRAY0649,Sprinkler,X-12,1022462.73983538,260023.392404302
Activated,X,X170,X170,The Pearly Gates,The Pearly Gates,Play Equipment,X170-SPRAY0650,Sprinkler,X-10,1026984.7068413,244886.899711474
Activated,X,X171,X171,Spuyten Duyvil Playground,Spuyten Duyvil Playground,Play Equipment,X171-SPRAY0651,Sprinkler,X-08,1007511.25464655,262465.127022147
Activated,X,X175,X175,Riverbend Playground,Riverbend Playground,Play Equipment,X175-SPRAY0652,Sprinkler,X-07,1010308.08796364,257008.990624725
Broken,X,X176,X176,Taylor Playground,Taylor Playground,Play Equipment,X176-SPRAY0653,Sprinkler,X-09,1021300.12240996,244974.412987887
Activated,X,X177,X177,Castle Hill Playground,Castle Hill Playground,Play Equipment,X177-SPRAY0654,Sprinkler,X-09,1024863.33280321,245072.368828728
Activated,X,X178,X178,Matthews Muliner Playground,Matthews Muliner Playground,Play Equipment,X178-SPRAY0655,Sprinkler,X-11,1022568.50143489,247861.922304719
Activated,X,X179,X179,Playground 52 LII,Playground 52 LII,Play Equipment,X179-SPRAY0656,Sprinkler,X-02,1011463.01380339,236276.725658893
Activated,X,X182,X182,Millbrook Playground,Millbrook Playground,Play Equipment,X182-SPRAY0657,Sprinkler,X-01,1007325.77601489,232335.892333224
Activated,X,X187,X187-01,Angelo Campanaro Plgd,Givan Square,Play Equipment,X187-01-SPRAY0658,Sprinkler,X-12,1027791.15306305,255572.433458477
Broken,X,X188,X188,Wakefield Playground,Wakefield Playground,Play Equipment,X188-SPRAY0659,Sprinkler,X-12,1024470.80766963,267901.727369397
Under Construction,X,X190,X190,Tiffany Playground,Tiffany Playground,Play Equipment,X190-SPRAY0660,Sprinkler,X-02,1013482.96120704,239806.288481637
Broken,X,X193,X193,Stars & Stripes Playground,Stars & Stripes Playground,Play Equipment,X193-SPRAY0661,Sprinkler,X-12,1028618.96407146,261902.858789727
Activated,X,X194,X194,Captain Rivera Playground,Captain Rivera Playground,Play Equipment,X194-SPRAY0662,Sprinkler,X-01,1010010.15187972,237286.339453309
Activated,X,X195A,X195A,Colgate Close,Colgate Close,Play Equipment,X195A-SPRAY0663,Sprinkler,X-09,1017049.81890271,239562.254520893
Activated,X,X196,X196-02,Haffen Park Playground,Haffen Park,Play Equipment,X196-02-SPRAY0664,Sprinkler,X-12,1028817.41446197,257501.530978232
Activated,X,X197,X197,Mosholu Playground,Mosholu Playground,Play Equipment,X197-SPRAY0665,Sprinkler,X-07,1016651.07035638,257165.952253058
Activated,X,X200,X200,Clark Playground,Clark Playground,Play Equipment,X200-SPRAY0666,Sprinkler,X-01,1006038.15523055,235743.066949307
Activated,X,X201,X201-01,Seton Park Playground,Seton Park,Play Equipment,X201-01-SPRAY0667,Sprinkler,X-08,1007193.62306396,262247.673388808
Activated,X,X202,X202,Marble Hill Playground,Marble Hill Playground,Play Equipment,X202-SPRAY0668,Sprinkler,X-08,1009641.78647471,258982.756362229
Activated,X,X203,X203,Randall Playground,Randall Playground,Play Equipment,X203-SPRAY0669,Sprinkler,X-09,1025878.07093122,237806.196681305
Activated,X,X206,X206,Morgan Playground,Morgan Playground,Play Equipment,X206-SPRAY0670,Sprinkler,X-03,1009865.48484621,242510.784056887
Activated,X,X214,X214,Magenta Playground,Magenta Playground,Play Equipment,X214-SPRAY0671,Sprinkler,X-12,1020792.55813638,257634.589111059
Activated,X,X216,X216,Abigail Playground,Abigail Playground,Play Equipment,X216-SPRAY0672,Sprinkler,X-01,1010644.42751406,237060.988197982
Activated,X,X217,X217,Willis Playground,Willis Playground,Play Equipment,X217-SPRAY0673,Sprinkler,X-01,1005574.99539572,234734.181499898
Activated,X,X221,X221,Space Time Playground,Space Time Playground,Play Equipment,X221-SPRAY0674,Sprinkler,X-09,1023032.36238379,238903.192846894
Activated,X,X222,X222,Gouverneur Playground,Gouverneur Playground,Play Equipment,X222-SPRAY0675,Sprinkler,X-03,1010971.71951039,243767.836660891
Activated,X,X224,X224,MacLaughlin Playground,MacLaughlin Playground,Play Equipment,X224-SPRAY0676,Sprinkler,X-08,1010420.05624364,262793.689029052
Activated,X,X232,X232,Burns Playground,Burns Playground,Play Equipment,X232-SPRAY0677,Sprinkler,X-11,1029447.42730955,253827.432355314
Activated,X,X233,X233,Fountain Of Youth Playground,Fountain Of Youth Playground,Play Equipment,X233-SPRAY0678,Sprinkler,X-01,1010475.87535771,235850.348558887
Activated,X,X235,X235,Grove Hill Playground,Grove Hill Playground,Play Equipment,X235-SPRAY0679,Sprinkler,X-01,1009480.85733464,237991.700247302
Activated,X,X257,X257,Mount Hope Playground,Mount Hope Playground,Play Equipment,X257-SPRAY0680,Sprinkler,X-05,1009304.09194013,249077.033063471
Activated,X,X258,X258,Cleopatra Playground,Cleopatra Playground,Play Equipment,X258-SPRAY0681,Sprinkler,X-05,1010755.44566471,247301.458202555
Activated,X,X262,X262,Harding Park,Harding Park,Play Equipment,X262-SPRAY0682,Sprinkler,X-09,1023945.19881272,234162.479887396
Activated,X,X265,X265,Galileo Playground,Galileo Playground,Play Equipment,X265-SPRAY0683,Sprinkler,X-05,1007575.7673128,248458.15667656
Activated,X,X266,X266,Vidalia Park,Vidalia Park,Play Equipment,X266-SPRAY0684,Sprinkler,X-06,1017056.06101621,246742.357614725
Activated,X,X273,X273,Rock Garden Park,Rock Garden Park,Play Equipment,X273-SPRAY0685,Sprinkler,X-03,1016040.90326963,243613.905210226
Activated,X,X280,X280,Washington Park,Washington Park,Play Equipment,X280-SPRAY0686,Sprinkler,X-06,1013680.06744013,251071.550399899
Activated,X,X281,X281,Stop & Go Playground,Stop & Go Playground,Play Equipment,X281-SPRAY0687,Sprinkler,X-06,1012243.78225496,247154.825949892
Activated,X,X283,X283,Beanstalk Playground,Beanstalk Playground,Play Equipment,X283-SPRAY0688,Sprinkler,X-05,1007280.80628855,250356.103996142
Activated,X,X292,X292,Morris Garden,Morris Garden,Play Equipment,X292-SPRAY0689,Sprinkler,X-05,1010806.37010355,250633.435790553
Activated,M,M108G,M108G,Playground 103 CIII,Playground 103 CIII,Play Equipment,M108G-SPRAY690,Sprinkler,M-15,1001093.22745639,226046.407208815
Activated,M,M107,M107-01,Scylla Playground,Ward's Island Park,Play Equipment,M107-SPRAY691,Sprinkler,M-11,1004754.50556689,224940.437635973
Activated,M,M111,M111,James Weldon Johnson Playground,James Weldon Johnson Playground,Play Equipment,M111-SPRAY692,Sprinkler,,1000265.34197305,229798.640846058
Activated,Q,Q163,Q163-02,Sandpiper Playground,Rockaway Beach Boardwalk,Play Equipment,Q163-02-SPRAY0693,Sprinkler,Q-14,1032218.89650413,150725.910212308
Activated,Q,Q163,Q163-02,Sandpiper Playground,Rockaway Beach Boardwalk,Play Equipment,Q163-02-SPRAY0695,Sprinkler,Q-14,1032221.7022728,150715.809182643
Activated,Q,Q163,Q163-02,Sandpiper Playground,Rockaway Beach Boardwalk,Play Equipment,Q163-02-SPRAY0696,Sprinkler,Q-14,1032202.62258654,150711.881040886
Activated,Q,Q015,Q015-08,Dry Harbor Playground,Forest Park,Play Equipment,Q015-08-SPRAY0697,Sprinkler,Q-16,1020939.13855189,195292.435908481
Activated,Q,Q102,Q102-03,Juniper South Playground,Juniper Valley Park,Play Equipment,Q102-03-SPRAY0698,Sprinkler,Q-05,1016763.06291455,201093.117548555
Activated,B,B132,B132,Gilbert Ramirez Park,Gilbert Ramirez Park,Play Equipment,B132-SPRAY0699,Sprinkler,B-01,1002343.08683329,196467.048716723
Activated,B,B113E,B113E,Walt Whitman Park,Walt Whitman Park,Play Equipment,B113E-SPRAY0700,Sprinkler,B-02,987203.177480638,193725.579790219
Activated,B,B407,B407,South Oxford Park,South Oxford Park,Play Equipment,B407-SPRAY0701,Sprinkler,B-02,991839.109153643,188312.118832394
Under Construction,B,B018,B018-01,Dinapoli Plgd,Canarsie Park,Play Equipment,B018-01-SPRAY0702,Sprinkler,B-18,1013977.3430923,169105.956129312
Activated,B,B018,B018-02,Canarsie Playground,Canarsie Park,Play Equipment,B018-02-SPRAY0703,Sprinkler,B-18,1012104.28286205,167635.570618644
Activated,B,B166D,B166D-01,McGuire Fields Tot Lot,Joseph T McGuire Park,Play Equipment,B166D-01-SPRAY0704,Sprinkler,B-18,1012250.41938079,165244.273235887
Activated,B,B057,B057-06,Seba Playground,Marine Park,Play Equipment,B057-06-SPRAY0705,Sprinkler,B-18,1006390.74245189,153931.751569643
Activated,B,BT16,BT16,St. Mark's Playground,St. Mark's Playground,Play Equipment,BT16-SPRAY0706,Sprinkler,B-08,1000890.45095905,185084.457636803
Under Construction,B,B372,B372,Friends Field,Friends Field,Play Equipment,B372-SPRAY0707,Sprinkler,B-12,991844.026466638,164746.462551727
Activated,R,R068,R068,The Big Park,The Big Park,Play Equipment,R068-SPRAY0708,Sprinkler,R-01,938492.046884715,169129.73626548
Activated,R,R062,R062,Arrochar Playground,Arrochar Playground,Play Equipment,R062-SPRAY0709,Sprinkler,R-02,964488.794103726,157060.684616222
Activated,R,R027A,R027A,Aesop Park,Aesop Park,Play Equipment,R027A-SPRAY0710,Sprinkler,R-03,920358.018848389,125017.735250815
Activated,R,R106,R106-01,Bloomingdale Playground,Bloomingdale Park,Play Equipment,R106-01-SPRAY0711,Sprinkler,R-03,926258.946679055,134343.879328146
Activated,R,R016,R016-01,Corporal Allan F. Kivlehan Park,Cedar Grove Beach,Play Equipment,R016-01-SPRAY0712,Sprinkler,R-03,957167.513798803,144794.521812647
Activated,R,R145,R145-01,Seaside Wildlife Nature Playground,Seaside Wildlife Nature Park,Play Equipment,R145-01-SPRAY0713,Sprinkler,R-03,944584.901496887,136543.816529303
Activated,R,R065,R065-02,Woodhull Playground,Richmond Parkway,Play Equipment,R065-02-SPRAY0714,Sprinkler,R-03,929261.404256805,133205.498730897
Activated,R,R090,R090,Lieutenant John H. Martinson Playground,Lieutenant John H. Martinson Playground,Play Equipment,R090-SPRAY0715,Sprinkler,R-03,939156.190569549,134958.299359142
Activated,Q,Q394,Q394,Conch Playground,Conch Playground,Play Equipment,Q394-SPRAY0716,Sprinkler,Q-14,1045243.12406454,156365.032792314
Activated,Q,Q394,Q394,Conch Playground,Conch Playground,Play Equipment,Q394-SPRAY0717,Sprinkler,Q-14,1045236.92328955,156375.367089226
Activated,Q,Q471,Q471-01,Hunter's Point South Park Playground North,Hunter's Point South Park,Play Equipment,Q471-01-SPRAY0718,Sprinkler,Q-02,995179.503391474,209945.223531976
Activated,Q,Q471,Q471-01,Hunter's Point South Park Playground North,Hunter's Point South Park,Play Equipment,Q471-01-SPRAY0719,Sprinkler,Q-02,995159.09431155,209970.54565981
Activated,Q,Q471,Q471-01,Hunter's Point South Park Playground North,Hunter's Point South Park,Play Equipment,Q471-01-SPRAY0720,Sprinkler,Q-02,995177.046703472,209988.120099723
Activated,Q,Q436,Q436,Athens Square,Athens Square,Play Equipment,Q436-SPRAY0721,Sprinkler,Q-01,1005846.41119147,219034.763095647
Activated,Q,Q436,Q436,Athens Square,Athens Square,Play Equipment,Q436-SPRAY0722,Sprinkler,Q-01,1005630.86569079,219009.074826806
Activated,R,R109,R109-01,Corporal Thompson Playground,CPL. Thompson Park,Play Equipment,R109-01-SPRAY0723,Sprinkler,R-01,951511.024127557,172022.629101723
Activated,Q,Q321,Q321,Van Alst Playground,Van Alst Playground,Play Equipment,Q321-SPRAY0725,Sprinkler,Q-01,1004106.43402838,220030.417600393
Activated,Q,Q123,Q123,Astoria Health Playground,Astoria Health Playground,Play Equipment,Q123-SPRAY0726,Sprinkler,Q-01,1002897.92791521,219062.976949974
Activated,Q,Q048,Q048-01,Rainey Park Playground,Rainey Park,Play Equipment,Q048-01-SPRAY0727,Sprinkler,Q-01,1000521.45399363,218186.064989894
Activated,Q,Q014,Q014,Astoria Heights Playground,Astoria Heights Playground,Play Equipment,Q014-SPRAY0728,Sprinkler,Q-01,1008809.96924072,216433.561933219
Activated,Q,Q404,Q404,East Springfield Playground,East Springfield Playground,Play Equipment,Q404-SPRAY0729,Sprinkler,,1056415.39338663,193938.905807137
Activated,Q,Q008,Q008-02,Brookville Park Playground,Brookville Park Playground,Play Equipment,Q008-02-SPRAY0730,Sprinkler,Q-13,1055812.95364664,180595.922322556
Activated,Q,Q220G,Q220G,Hoover - Manton Playgrounds,Hoover - Manton Playgrounds,Play Equipment,Q220G-SPRAY0731,Sprinkler,Q-08,1034064.82982014,198134.789803802
Activated,Q,Q353,Q353,Grassmere Playground,Grassmere Playground,Play Equipment,Q353-SPRAY0732,Sprinkler,Q-14,1051069.85388088,157798.194296062
Activated,Q,Q353,Q353,Grassmere Playground,Grassmere Playground,Play Equipment,Q353-SPRAY0733,Sprinkler,Q-14,1051080.39060522,157843.962577223
Activated,Q,Q162J,Q162J,Beach 17 Playground,Beach 17 Playground,Play Equipment,Q162J-SPRAY0734,Sprinkler,Q-14,1054475.66957581,156112.992285892
Activated,Q,R046,R046-ZN05,Midland Beach Zone 5,FDR Beach and Boardwalk,Play Equipment,R046-ZN05-SPRAY0735,Sprinkler,R-02,960678.844374552,148085.390558972
Activated,R,R046,R046-ZN05,Midland Beach Zone 4,FDR Beach and Boardwalk,Play Equipment,R046-ZN04-SPRAY0736,Sprinkler,R-02,962810.150151297,149960.964563727
Activated,Q,Q066C,Q066C,Triborough Bridge Playground C,Triborough Bridge Playground C,Play Equipment,Q066C-SPRAY0737,Sprinkler,Q-01,1005739.63187746,221317.491141721
Activated,Q,Q066C,Q066C,Triborough Bridge Playground C,Triborough Bridge Playground C,Play Equipment,Q066C-SPRAY0738,Sprinkler,Q-01,1005812.69505155,221244.427967637
Activated,Q,Q162,Q162-ZN01B,Roackaway Beach Zone 01B,Rockaway Beach and Boardwalk,Play Equipment,Q162-ZN01B-SPRAY0739,Sprinkler,Q-14,1053851.6688553,155901.86508347
Activated,Q,Q162H,Q162H,Beach 30th Street Playground,Beach 30th Street Playground,Play Equipment,Q162H-SPRAY0740,Sprinkler,Q-14,1050339.01151055,155235.496665567
Activated,Q,,Q300A1,Holy Cow Playground,Holy Cow Playground,Play Equipment,Q300A1-SPRAY0741,Sprinkler,Q-08,1046193.9597613,209495.89437814
Activated,Q,Q024,Q024-05,Playground,Kissena Park,Play Equipment,Q024-05-SPRAY0742,Sprinkler,Q-07,1037642.4847383,212427.096520975
Activated,Q,Q296,Q296,Playground Thirty Five XXXV,Playground Thirty Five XXXV,Play Equipment,Q296-SPRAY0743,Sprinkler,Q-01,1005815.3574478,214268.16665773
Activated,Q,Q013,Q013,Veterans Grove,Veterans Grove,Play Equipment,Q013-SPRAY0744,Sprinkler,Q-04,1018119.7048863,209859.857889056
Activated,Q,Q013,Q013,Veterans Grove,Veterans Grove,Play Equipment,Q013-SPRAY0745,Sprinkler,Q-04,1018127.36989721,209846.061000645
Activated,Q,Q474,Q474,Simeone Park,Simeone Park,Play Equipment,Q474-SPRAY0746,Sprinkler,Q-04,1022989.8664058,209364.107896313
Activated,Q,Q492,Q492,Elmhurst Park,Elmhurst Park,Play Equipment,Q492-SPRAY0747,Sprinkler,Q-04,1016110.92970438,205290.511056646
Broken,Q,Q492,Q492,Elmhurst Park,Elmhurst Park,Play Equipment,Q492-SPRAY0748,Sprinkler,Q-04,1016116.81650364,205273.505185142
Broken,Q,Q492,Q492,Elmhurst Park,Elmhurst Park,Play Equipment,Q492-SPRAY0749,Sprinkler,Q-04,1016131.20623864,205250.285415306
Activated,Q,Q020,Q020-01,Lower Highland Playground,Highland Park,Play Equipment,Q020-01-SPRAY0750,Sprinkler,Q-05A,1016118.36833781,188598.79575248
Activated,Q,Q425,Q425,Yelowstone Park,Yelowstone Park,Play Equipment,Q425-SPRAY0751,Sprinkler,Q-06,1026409.21553821,203834.772498309
Activated,Q,Q405,Q405,Hollis Playground,Hollis Playground,Play Equipment,Q405-SPRAY0752,Sprinkler,Q-12,1052708.79646913,196806.532617807
Activated,Q,Q448-01,Q448-01,Nautilus Playground,Nautilus Playground,Play Equipment,Q448-01-SPRAY0753,Sprinkler,Q-12,1047955.59239289,188712.607204645
Activated,Q,Q005,Q005-12,Rockaway Blvd Playground,Baisley Pond Park,Play Equipment,Q005-12-SPRAY0754,Sprinkler,Q-12,1043203.15209463,184349.352807804
Activated,Q,Q506,Q506,Jamaica Gateway Park,Jamaica Gateway Park,Play Equipment,Q506-SPRAY0755,Sprinkler,Q-12,1036207.03190055,193287.743067473
Activated,B,B055,B055,Sternberg Park,Sternberg Park,Play Equipment,B055-SPRAY0756,Sprinkler,B-01,998953.400371223,196432.087172478
Broken,B,B096,B096,Sgt. William Dougherty Playground,Sgt. William Dougherty Playground,Play Equipment,B096-SPRAY0757,Sprinkler,B-01,1001659.31753155,202865.866955816
Broken,B,B325,B325,Fish Playground,Fish Playground,Play Equipment,B325-SPRAY0758,Sprinkler,B-16,1007980.46007296,186363.756915479
Activated,X,X092,X092-26,Sachkerah Woods Playground,Van Cortlandt Park,Play Equipment,X092-26-SPRAY0759,Sprinkler,X-13,1016973.61203414,261329.96721898
Activated,X,X092,X092-ZN02,Van Cortlandt Park Stadium,Van Cortlandt Park,Play Equipment,X092-ZN02-SPRAY0760,Sprinkler,X-13,1012439.79236163,263210.099613562
Under Construction,X,X092,X092-10,Van Cortlandt Tot Lot,Van Cortlandt Park,Play Equipment,X092-10-SPRAY0761,Sprinkler,X-13,1013203.5158998,268317.480474889
Activated,M,M063,M063,Gertrude Ederle Recreation Center,Gertrude Ederle Recreation Center,Play Equipment,M063-SPRAY0762,Sprinkler,M-07,987411.820764139,220244.687184974
Activated,B,B080,B080-01,Asser Levy Playground,Asser Levy Park,Play Equipment,B080-01-SPRAY0763,Sprinkler,B-13,991968.996032968,148872.911949813
Activated,B,B049,B049,Irving Square Park,Irving Square Park,Play Equipment,B049-SPRAY0764,Sprinkler,B-04,1009522.02003295,191699.286598324
Activated,B,B110,B110,Marion Hopkinson Playground,Marion Hopkinson Playground,Play Equipment,B110-SPRAY0765,Sprinkler,B-16,1008313.89429334,187648.672739756
Under Construction,B,,B008-03,,,Play Equipment,,Sprinkler,B-016,1008731.74154613,181228.164188165
Activated,B,,B118B,,,Play Equipment,,Sprinkler,B-06,984992.716724232,185540.494337623
Activated,B,,B142,,,Play Equipment,,Sprinkler,B-01,994250.420868977,197391.857012445
Activated,B,,B283,,,Play Equipment,,Sprinkler,b-05,1022318.19445578,185434.614886074
Activated,B,,B305,,,Play Equipment,,Sprinkler,B-18,1013866.77477593,174143.489681322
Activated,B,,B380,,,Play Equipment,,Sprinkler,B-05,1021672.13434576,184878.284790601
Activated,B,,B385,,,Play Equipment,,Sprinkler,B-01,995236.042829505,205229.15126766
Activated,B,,B529,,,Play Equipment,,Sprinkler,B-01,995167.73639031,202341.69873177
Activated,B,,B429,,,Play Equipment,,Sprinkler,B-04,1007114.12671341,193403.569703158
Activated,B,,B541,,,Play Equipment,,Sprinkler,B-05,1020455.25469197,178567.48613467
Activated,B,,B-16,,,Play Equipment,,Sprinkler,B585,1006848.596822,183861.424581031
Activated,B,,B324,,,Play Equipment,,Sprinkler,B-18,1006658.43346688,166876.814597475
